<?xml version="1.0" encoding="UTF-8"?>
<gpx version="1.1" creator="ChronoWalk Rome" xmlns="http://www.topografix.com/GPX/1/1">
  <metadata>
    <name>ChronoWalk Rome — App Store review track</name>
    <desc>Walking track through all canonical Rome waypoints (path A) with ~15 m interpolation at 1.4 m/s. Use in Xcode → Debug → Simulate Location → Add GPX File.</desc>
    <time>2026-06-01T09:00:00Z</time>
  </metadata>
  <trk>
    <name>Rome route (path A)</name>
    <trkseg>
        <trkpt lat="41.890200" lon="12.492200">
          <name>The Colosseum</name>
          <time>2026-06-01T09:00:00Z</time>
        </trkpt>
        <trkpt lat="41.890400" lon="12.492400">
          <name>Colosseum interior</name>
          <time>2026-06-01T09:00:19Z</time>
        </trkpt>
        <trkpt lat="41.890405" lon="12.492216">
          <time>2026-06-01T09:00:30Z</time>
        </trkpt>
        <trkpt lat="41.890409" lon="12.492032">
          <time>2026-06-01T09:00:41Z</time>
        </trkpt>
        <trkpt lat="41.890414" lon="12.491848">
          <time>2026-06-01T09:00:52Z</time>
        </trkpt>
        <trkpt lat="41.890418" lon="12.491664">
          <time>2026-06-01T09:01:03Z</time>
        </trkpt>
        <trkpt lat="41.890423" lon="12.491480">
          <time>2026-06-01T09:01:14Z</time>
        </trkpt>
        <trkpt lat="41.890427" lon="12.491295">
          <time>2026-06-01T09:01:25Z</time>
        </trkpt>
        <trkpt lat="41.890432" lon="12.491111">
          <time>2026-06-01T09:01:36Z</time>
        </trkpt>
        <trkpt lat="41.890436" lon="12.490927">
          <time>2026-06-01T09:01:46Z</time>
        </trkpt>
        <trkpt lat="41.890441" lon="12.490743">
          <time>2026-06-01T09:01:57Z</time>
        </trkpt>
        <trkpt lat="41.890445" lon="12.490559">
          <time>2026-06-01T09:02:08Z</time>
        </trkpt>
        <trkpt lat="41.890450" lon="12.490375">
          <time>2026-06-01T09:02:19Z</time>
        </trkpt>
        <trkpt lat="41.890455" lon="12.490191">
          <time>2026-06-01T09:02:30Z</time>
        </trkpt>
        <trkpt lat="41.890459" lon="12.490007">
          <time>2026-06-01T09:02:41Z</time>
        </trkpt>
        <trkpt lat="41.890464" lon="12.489823">
          <time>2026-06-01T09:02:52Z</time>
        </trkpt>
        <trkpt lat="41.890468" lon="12.489639">
          <time>2026-06-01T09:03:03Z</time>
        </trkpt>
        <trkpt lat="41.890473" lon="12.489455">
          <time>2026-06-01T09:03:14Z</time>
        </trkpt>
        <trkpt lat="41.890477" lon="12.489270">
          <time>2026-06-01T09:03:24Z</time>
        </trkpt>
        <trkpt lat="41.890482" lon="12.489086">
          <time>2026-06-01T09:03:35Z</time>
        </trkpt>
        <trkpt lat="41.890486" lon="12.488902">
          <time>2026-06-01T09:03:46Z</time>
        </trkpt>
        <trkpt lat="41.890491" lon="12.488718">
          <time>2026-06-01T09:03:57Z</time>
        </trkpt>
        <trkpt lat="41.890495" lon="12.488534">
          <time>2026-06-01T09:04:08Z</time>
        </trkpt>
        <trkpt lat="41.890500" lon="12.488350">
          <name>Arch of Titus</name>
          <time>2026-06-01T09:04:19Z</time>
        </trkpt>
        <trkpt lat="41.890639" lon="12.488311">
          <time>2026-06-01T09:04:30Z</time>
        </trkpt>
        <trkpt lat="41.890778" lon="12.488272">
          <time>2026-06-01T09:04:41Z</time>
        </trkpt>
        <trkpt lat="41.890917" lon="12.488233">
          <time>2026-06-01T09:04:53Z</time>
        </trkpt>
        <trkpt lat="41.891056" lon="12.488194">
          <time>2026-06-01T09:05:04Z</time>
        </trkpt>
        <trkpt lat="41.891194" lon="12.488156">
          <time>2026-06-01T09:05:15Z</time>
        </trkpt>
        <trkpt lat="41.891333" lon="12.488117">
          <time>2026-06-01T09:05:27Z</time>
        </trkpt>
        <trkpt lat="41.891472" lon="12.488078">
          <time>2026-06-01T09:05:38Z</time>
        </trkpt>
        <trkpt lat="41.891611" lon="12.488039">
          <time>2026-06-01T09:05:49Z</time>
        </trkpt>
        <trkpt lat="41.891750" lon="12.488000">
          <name>Basilica of Maxentius</name>
          <time>2026-06-01T09:06:00Z</time>
        </trkpt>
        <trkpt lat="41.891803" lon="12.487823">
          <time>2026-06-01T09:06:12Z</time>
        </trkpt>
        <trkpt lat="41.891857" lon="12.487647">
          <time>2026-06-01T09:06:23Z</time>
        </trkpt>
        <trkpt lat="41.891910" lon="12.487470">
          <time>2026-06-01T09:06:34Z</time>
        </trkpt>
        <trkpt lat="41.891963" lon="12.487293">
          <time>2026-06-01T09:06:45Z</time>
        </trkpt>
        <trkpt lat="41.892017" lon="12.487117">
          <time>2026-06-01T09:06:57Z</time>
        </trkpt>
        <trkpt lat="41.892070" lon="12.486940">
          <time>2026-06-01T09:07:08Z</time>
        </trkpt>
        <trkpt lat="41.892123" lon="12.486763">
          <time>2026-06-01T09:07:19Z</time>
        </trkpt>
        <trkpt lat="41.892177" lon="12.486587">
          <time>2026-06-01T09:07:30Z</time>
        </trkpt>
        <trkpt lat="41.892230" lon="12.486410">
          <time>2026-06-01T09:07:42Z</time>
        </trkpt>
        <trkpt lat="41.892283" lon="12.486233">
          <time>2026-06-01T09:07:53Z</time>
        </trkpt>
        <trkpt lat="41.892337" lon="12.486057">
          <time>2026-06-01T09:08:04Z</time>
        </trkpt>
        <trkpt lat="41.892390" lon="12.485880">
          <time>2026-06-01T09:08:16Z</time>
        </trkpt>
        <trkpt lat="41.892443" lon="12.485703">
          <time>2026-06-01T09:08:27Z</time>
        </trkpt>
        <trkpt lat="41.892497" lon="12.485527">
          <time>2026-06-01T09:08:38Z</time>
        </trkpt>
        <trkpt lat="41.892550" lon="12.485350">
          <name>Via Sacra</name>
          <time>2026-06-01T09:08:49Z</time>
        </trkpt>
        <trkpt lat="41.892484" lon="12.485514">
          <time>2026-06-01T09:09:00Z</time>
        </trkpt>
        <trkpt lat="41.892417" lon="12.485677">
          <time>2026-06-01T09:09:11Z</time>
        </trkpt>
        <trkpt lat="41.892351" lon="12.485841">
          <time>2026-06-01T09:09:22Z</time>
        </trkpt>
        <trkpt lat="41.892285" lon="12.486005">
          <time>2026-06-01T09:09:33Z</time>
        </trkpt>
        <trkpt lat="41.892218" lon="12.486168">
          <time>2026-06-01T09:09:44Z</time>
        </trkpt>
        <trkpt lat="41.892152" lon="12.486332">
          <time>2026-06-01T09:09:55Z</time>
        </trkpt>
        <trkpt lat="41.892085" lon="12.486495">
          <time>2026-06-01T09:10:07Z</time>
        </trkpt>
        <trkpt lat="41.892019" lon="12.486659">
          <time>2026-06-01T09:10:18Z</time>
        </trkpt>
        <trkpt lat="41.891953" lon="12.486823">
          <time>2026-06-01T09:10:29Z</time>
        </trkpt>
        <trkpt lat="41.891886" lon="12.486986">
          <time>2026-06-01T09:10:40Z</time>
        </trkpt>
        <trkpt lat="41.891820" lon="12.487150">
          <name>Temple of Vesta</name>
          <time>2026-06-01T09:10:51Z</time>
        </trkpt>
        <trkpt lat="41.891847" lon="12.486933">
          <time>2026-06-01T09:11:04Z</time>
        </trkpt>
        <trkpt lat="41.891873" lon="12.486717">
          <time>2026-06-01T09:11:17Z</time>
        </trkpt>
        <trkpt lat="41.891900" lon="12.486500">
          <name>Forum rest</name>
          <time>2026-06-01T09:11:30Z</time>
        </trkpt>
        <trkpt lat="41.892002" lon="12.486353">
          <time>2026-06-01T09:11:41Z</time>
        </trkpt>
        <trkpt lat="41.892104" lon="12.486207">
          <time>2026-06-01T09:11:53Z</time>
        </trkpt>
        <trkpt lat="41.892207" lon="12.486060">
          <time>2026-06-01T09:12:05Z</time>
        </trkpt>
        <trkpt lat="41.892309" lon="12.485913">
          <time>2026-06-01T09:12:17Z</time>
        </trkpt>
        <trkpt lat="41.892411" lon="12.485767">
          <time>2026-06-01T09:12:29Z</time>
        </trkpt>
        <trkpt lat="41.892513" lon="12.485620">
          <time>2026-06-01T09:12:41Z</time>
        </trkpt>
        <trkpt lat="41.892616" lon="12.485473">
          <time>2026-06-01T09:12:53Z</time>
        </trkpt>
        <trkpt lat="41.892718" lon="12.485327">
          <time>2026-06-01T09:13:05Z</time>
        </trkpt>
        <trkpt lat="41.892820" lon="12.485180">
          <name>The Rostra</name>
          <time>2026-06-01T09:13:16Z</time>
        </trkpt>
        <trkpt lat="41.892868" lon="12.484990">
          <time>2026-06-01T09:13:28Z</time>
        </trkpt>
        <trkpt lat="41.892915" lon="12.484800">
          <time>2026-06-01T09:13:40Z</time>
        </trkpt>
        <trkpt lat="41.892962" lon="12.484610">
          <time>2026-06-01T09:13:52Z</time>
        </trkpt>
        <trkpt lat="41.893010" lon="12.484420">
          <name>Arch of Septimius Severus</name>
          <time>2026-06-01T09:14:04Z</time>
        </trkpt>
        <trkpt lat="41.893036" lon="12.484234">
          <time>2026-06-01T09:14:15Z</time>
        </trkpt>
        <trkpt lat="41.893061" lon="12.484049">
          <time>2026-06-01T09:14:26Z</time>
        </trkpt>
        <trkpt lat="41.893087" lon="12.483863">
          <time>2026-06-01T09:14:37Z</time>
        </trkpt>
        <trkpt lat="41.893112" lon="12.483678">
          <time>2026-06-01T09:14:48Z</time>
        </trkpt>
        <trkpt lat="41.893138" lon="12.483492">
          <time>2026-06-01T09:15:00Z</time>
        </trkpt>
        <trkpt lat="41.893163" lon="12.483307">
          <time>2026-06-01T09:15:11Z</time>
        </trkpt>
        <trkpt lat="41.893189" lon="12.483121">
          <time>2026-06-01T09:15:22Z</time>
        </trkpt>
        <trkpt lat="41.893214" lon="12.482936">
          <time>2026-06-01T09:15:33Z</time>
        </trkpt>
        <trkpt lat="41.893240" lon="12.482750">
          <name>Capitoline Hill</name>
          <time>2026-06-01T09:15:44Z</time>
        </trkpt>
        <trkpt lat="41.893338" lon="12.482883">
          <time>2026-06-01T09:15:55Z</time>
        </trkpt>
        <trkpt lat="41.893437" lon="12.483017">
          <time>2026-06-01T09:16:06Z</time>
        </trkpt>
        <trkpt lat="41.893535" lon="12.483150">
          <time>2026-06-01T09:16:18Z</time>
        </trkpt>
        <trkpt lat="41.893633" lon="12.483283">
          <time>2026-06-01T09:16:29Z</time>
        </trkpt>
        <trkpt lat="41.893732" lon="12.483417">
          <time>2026-06-01T09:16:40Z</time>
        </trkpt>
        <trkpt lat="41.893830" lon="12.483550">
          <time>2026-06-01T09:16:51Z</time>
        </trkpt>
        <trkpt lat="41.893928" lon="12.483683">
          <time>2026-06-01T09:17:02Z</time>
        </trkpt>
        <trkpt lat="41.894027" lon="12.483817">
          <time>2026-06-01T09:17:13Z</time>
        </trkpt>
        <trkpt lat="41.894125" lon="12.483950">
          <time>2026-06-01T09:17:24Z</time>
        </trkpt>
        <trkpt lat="41.894223" lon="12.484083">
          <time>2026-06-01T09:17:35Z</time>
        </trkpt>
        <trkpt lat="41.894322" lon="12.484217">
          <time>2026-06-01T09:17:46Z</time>
        </trkpt>
        <trkpt lat="41.894420" lon="12.484350">
          <time>2026-06-01T09:17:57Z</time>
        </trkpt>
        <trkpt lat="41.894518" lon="12.484483">
          <time>2026-06-01T09:18:09Z</time>
        </trkpt>
        <trkpt lat="41.894617" lon="12.484617">
          <time>2026-06-01T09:18:20Z</time>
        </trkpt>
        <trkpt lat="41.894715" lon="12.484750">
          <time>2026-06-01T09:18:31Z</time>
        </trkpt>
        <trkpt lat="41.894813" lon="12.484883">
          <time>2026-06-01T09:18:42Z</time>
        </trkpt>
        <trkpt lat="41.894912" lon="12.485017">
          <time>2026-06-01T09:18:53Z</time>
        </trkpt>
        <trkpt lat="41.895010" lon="12.485150">
          <time>2026-06-01T09:19:04Z</time>
        </trkpt>
        <trkpt lat="41.895108" lon="12.485283">
          <time>2026-06-01T09:19:15Z</time>
        </trkpt>
        <trkpt lat="41.895207" lon="12.485417">
          <time>2026-06-01T09:19:26Z</time>
        </trkpt>
        <trkpt lat="41.895305" lon="12.485550">
          <time>2026-06-01T09:19:37Z</time>
        </trkpt>
        <trkpt lat="41.895403" lon="12.485683">
          <time>2026-06-01T09:19:48Z</time>
        </trkpt>
        <trkpt lat="41.895502" lon="12.485817">
          <time>2026-06-01T09:19:59Z</time>
        </trkpt>
        <trkpt lat="41.895600" lon="12.485950">
          <name>Trajan's Market</name>
          <time>2026-06-01T09:20:11Z</time>
        </trkpt>
        <trkpt lat="41.895731" lon="12.485907">
          <time>2026-06-01T09:20:21Z</time>
        </trkpt>
        <trkpt lat="41.895863" lon="12.485865">
          <time>2026-06-01T09:20:32Z</time>
        </trkpt>
        <trkpt lat="41.895994" lon="12.485822">
          <time>2026-06-01T09:20:43Z</time>
        </trkpt>
        <trkpt lat="41.896125" lon="12.485780">
          <time>2026-06-01T09:20:53Z</time>
        </trkpt>
        <trkpt lat="41.896256" lon="12.485737">
          <time>2026-06-01T09:21:04Z</time>
        </trkpt>
        <trkpt lat="41.896388" lon="12.485695">
          <time>2026-06-01T09:21:15Z</time>
        </trkpt>
        <trkpt lat="41.896519" lon="12.485652">
          <time>2026-06-01T09:21:26Z</time>
        </trkpt>
        <trkpt lat="41.896650" lon="12.485610">
          <time>2026-06-01T09:21:36Z</time>
        </trkpt>
        <trkpt lat="41.896781" lon="12.485567">
          <time>2026-06-01T09:21:47Z</time>
        </trkpt>
        <trkpt lat="41.896913" lon="12.485525">
          <time>2026-06-01T09:21:58Z</time>
        </trkpt>
        <trkpt lat="41.897044" lon="12.485482">
          <time>2026-06-01T09:22:09Z</time>
        </trkpt>
        <trkpt lat="41.897175" lon="12.485440">
          <time>2026-06-01T09:22:19Z</time>
        </trkpt>
        <trkpt lat="41.897306" lon="12.485397">
          <time>2026-06-01T09:22:30Z</time>
        </trkpt>
        <trkpt lat="41.897438" lon="12.485355">
          <time>2026-06-01T09:22:41Z</time>
        </trkpt>
        <trkpt lat="41.897569" lon="12.485312">
          <time>2026-06-01T09:22:51Z</time>
        </trkpt>
        <trkpt lat="41.897700" lon="12.485269">
          <time>2026-06-01T09:23:02Z</time>
        </trkpt>
        <trkpt lat="41.897832" lon="12.485227">
          <time>2026-06-01T09:23:13Z</time>
        </trkpt>
        <trkpt lat="41.897963" lon="12.485184">
          <time>2026-06-01T09:23:24Z</time>
        </trkpt>
        <trkpt lat="41.898094" lon="12.485142">
          <time>2026-06-01T09:23:34Z</time>
        </trkpt>
        <trkpt lat="41.898225" lon="12.485099">
          <time>2026-06-01T09:23:45Z</time>
        </trkpt>
        <trkpt lat="41.898357" lon="12.485057">
          <time>2026-06-01T09:23:56Z</time>
        </trkpt>
        <trkpt lat="41.898488" lon="12.485014">
          <time>2026-06-01T09:24:07Z</time>
        </trkpt>
        <trkpt lat="41.898619" lon="12.484972">
          <time>2026-06-01T09:24:17Z</time>
        </trkpt>
        <trkpt lat="41.898750" lon="12.484929">
          <time>2026-06-01T09:24:28Z</time>
        </trkpt>
        <trkpt lat="41.898882" lon="12.484887">
          <time>2026-06-01T09:24:39Z</time>
        </trkpt>
        <trkpt lat="41.899013" lon="12.484844">
          <time>2026-06-01T09:24:49Z</time>
        </trkpt>
        <trkpt lat="41.899144" lon="12.484802">
          <time>2026-06-01T09:25:00Z</time>
        </trkpt>
        <trkpt lat="41.899275" lon="12.484759">
          <time>2026-06-01T09:25:11Z</time>
        </trkpt>
        <trkpt lat="41.899407" lon="12.484717">
          <time>2026-06-01T09:25:22Z</time>
        </trkpt>
        <trkpt lat="41.899538" lon="12.484674">
          <time>2026-06-01T09:25:32Z</time>
        </trkpt>
        <trkpt lat="41.899669" lon="12.484632">
          <time>2026-06-01T09:25:43Z</time>
        </trkpt>
        <trkpt lat="41.899801" lon="12.484589">
          <time>2026-06-01T09:25:54Z</time>
        </trkpt>
        <trkpt lat="41.899932" lon="12.484546">
          <time>2026-06-01T09:26:04Z</time>
        </trkpt>
        <trkpt lat="41.900063" lon="12.484504">
          <time>2026-06-01T09:26:15Z</time>
        </trkpt>
        <trkpt lat="41.900194" lon="12.484461">
          <time>2026-06-01T09:26:26Z</time>
        </trkpt>
        <trkpt lat="41.900326" lon="12.484419">
          <time>2026-06-01T09:26:37Z</time>
        </trkpt>
        <trkpt lat="41.900457" lon="12.484376">
          <time>2026-06-01T09:26:47Z</time>
        </trkpt>
        <trkpt lat="41.900588" lon="12.484334">
          <time>2026-06-01T09:26:58Z</time>
        </trkpt>
        <trkpt lat="41.900719" lon="12.484291">
          <time>2026-06-01T09:27:09Z</time>
        </trkpt>
        <trkpt lat="41.900851" lon="12.484249">
          <time>2026-06-01T09:27:20Z</time>
        </trkpt>
        <trkpt lat="41.900982" lon="12.484206">
          <time>2026-06-01T09:27:30Z</time>
        </trkpt>
        <trkpt lat="41.901113" lon="12.484164">
          <time>2026-06-01T09:27:41Z</time>
        </trkpt>
        <trkpt lat="41.901244" lon="12.484121">
          <time>2026-06-01T09:27:52Z</time>
        </trkpt>
        <trkpt lat="41.901376" lon="12.484079">
          <time>2026-06-01T09:28:02Z</time>
        </trkpt>
        <trkpt lat="41.901507" lon="12.484036">
          <time>2026-06-01T09:28:13Z</time>
        </trkpt>
        <trkpt lat="41.901638" lon="12.483994">
          <time>2026-06-01T09:28:24Z</time>
        </trkpt>
        <trkpt lat="41.901769" lon="12.483951">
          <time>2026-06-01T09:28:35Z</time>
        </trkpt>
        <trkpt lat="41.901901" lon="12.483908">
          <time>2026-06-01T09:28:45Z</time>
        </trkpt>
        <trkpt lat="41.902032" lon="12.483866">
          <time>2026-06-01T09:28:56Z</time>
        </trkpt>
        <trkpt lat="41.902163" lon="12.483823">
          <time>2026-06-01T09:29:07Z</time>
        </trkpt>
        <trkpt lat="41.902295" lon="12.483781">
          <time>2026-06-01T09:29:18Z</time>
        </trkpt>
        <trkpt lat="41.902426" lon="12.483738">
          <time>2026-06-01T09:29:28Z</time>
        </trkpt>
        <trkpt lat="41.902557" lon="12.483696">
          <time>2026-06-01T09:29:39Z</time>
        </trkpt>
        <trkpt lat="41.902688" lon="12.483653">
          <time>2026-06-01T09:29:50Z</time>
        </trkpt>
        <trkpt lat="41.902820" lon="12.483611">
          <time>2026-06-01T09:30:00Z</time>
        </trkpt>
        <trkpt lat="41.902951" lon="12.483568">
          <time>2026-06-01T09:30:11Z</time>
        </trkpt>
        <trkpt lat="41.903082" lon="12.483526">
          <time>2026-06-01T09:30:22Z</time>
        </trkpt>
        <trkpt lat="41.903213" lon="12.483483">
          <time>2026-06-01T09:30:33Z</time>
        </trkpt>
        <trkpt lat="41.903345" lon="12.483441">
          <time>2026-06-01T09:30:43Z</time>
        </trkpt>
        <trkpt lat="41.903476" lon="12.483398">
          <time>2026-06-01T09:30:54Z</time>
        </trkpt>
        <trkpt lat="41.903607" lon="12.483356">
          <time>2026-06-01T09:31:05Z</time>
        </trkpt>
        <trkpt lat="41.903738" lon="12.483313">
          <time>2026-06-01T09:31:16Z</time>
        </trkpt>
        <trkpt lat="41.903870" lon="12.483271">
          <time>2026-06-01T09:31:26Z</time>
        </trkpt>
        <trkpt lat="41.904001" lon="12.483228">
          <time>2026-06-01T09:31:37Z</time>
        </trkpt>
        <trkpt lat="41.904132" lon="12.483185">
          <time>2026-06-01T09:31:48Z</time>
        </trkpt>
        <trkpt lat="41.904264" lon="12.483143">
          <time>2026-06-01T09:31:58Z</time>
        </trkpt>
        <trkpt lat="41.904395" lon="12.483100">
          <time>2026-06-01T09:32:09Z</time>
        </trkpt>
        <trkpt lat="41.904526" lon="12.483058">
          <time>2026-06-01T09:32:20Z</time>
        </trkpt>
        <trkpt lat="41.904657" lon="12.483015">
          <time>2026-06-01T09:32:31Z</time>
        </trkpt>
        <trkpt lat="41.904789" lon="12.482973">
          <time>2026-06-01T09:32:41Z</time>
        </trkpt>
        <trkpt lat="41.904920" lon="12.482930">
          <time>2026-06-01T09:32:52Z</time>
        </trkpt>
        <trkpt lat="41.905051" lon="12.482888">
          <time>2026-06-01T09:33:03Z</time>
        </trkpt>
        <trkpt lat="41.905182" lon="12.482845">
          <time>2026-06-01T09:33:13Z</time>
        </trkpt>
        <trkpt lat="41.905314" lon="12.482803">
          <time>2026-06-01T09:33:24Z</time>
        </trkpt>
        <trkpt lat="41.905445" lon="12.482760">
          <time>2026-06-01T09:33:35Z</time>
        </trkpt>
        <trkpt lat="41.905576" lon="12.482718">
          <time>2026-06-01T09:33:46Z</time>
        </trkpt>
        <trkpt lat="41.905707" lon="12.482675">
          <time>2026-06-01T09:33:56Z</time>
        </trkpt>
        <trkpt lat="41.905839" lon="12.482633">
          <time>2026-06-01T09:34:07Z</time>
        </trkpt>
        <trkpt lat="41.905970" lon="12.482590">
          <name>Spanish Steps</name>
          <time>2026-06-01T09:34:18Z</time>
        </trkpt>
        <trkpt lat="41.905834" lon="12.482609">
          <time>2026-06-01T09:34:29Z</time>
        </trkpt>
        <trkpt lat="41.905698" lon="12.482629">
          <time>2026-06-01T09:34:40Z</time>
        </trkpt>
        <trkpt lat="41.905562" lon="12.482648">
          <time>2026-06-01T09:34:50Z</time>
        </trkpt>
        <trkpt lat="41.905426" lon="12.482668">
          <time>2026-06-01T09:35:01Z</time>
        </trkpt>
        <trkpt lat="41.905290" lon="12.482687">
          <time>2026-06-01T09:35:12Z</time>
        </trkpt>
        <trkpt lat="41.905154" lon="12.482707">
          <time>2026-06-01T09:35:23Z</time>
        </trkpt>
        <trkpt lat="41.905018" lon="12.482726">
          <time>2026-06-01T09:35:34Z</time>
        </trkpt>
        <trkpt lat="41.904882" lon="12.482746">
          <time>2026-06-01T09:35:45Z</time>
        </trkpt>
        <trkpt lat="41.904746" lon="12.482765">
          <time>2026-06-01T09:35:56Z</time>
        </trkpt>
        <trkpt lat="41.904611" lon="12.482785">
          <time>2026-06-01T09:36:06Z</time>
        </trkpt>
        <trkpt lat="41.904475" lon="12.482804">
          <time>2026-06-01T09:36:17Z</time>
        </trkpt>
        <trkpt lat="41.904339" lon="12.482824">
          <time>2026-06-01T09:36:28Z</time>
        </trkpt>
        <trkpt lat="41.904203" lon="12.482843">
          <time>2026-06-01T09:36:39Z</time>
        </trkpt>
        <trkpt lat="41.904067" lon="12.482862">
          <time>2026-06-01T09:36:50Z</time>
        </trkpt>
        <trkpt lat="41.903931" lon="12.482882">
          <time>2026-06-01T09:37:01Z</time>
        </trkpt>
        <trkpt lat="41.903795" lon="12.482901">
          <time>2026-06-01T09:37:12Z</time>
        </trkpt>
        <trkpt lat="41.903659" lon="12.482921">
          <time>2026-06-01T09:37:22Z</time>
        </trkpt>
        <trkpt lat="41.903523" lon="12.482940">
          <time>2026-06-01T09:37:33Z</time>
        </trkpt>
        <trkpt lat="41.903387" lon="12.482960">
          <time>2026-06-01T09:37:44Z</time>
        </trkpt>
        <trkpt lat="41.903251" lon="12.482979">
          <time>2026-06-01T09:37:55Z</time>
        </trkpt>
        <trkpt lat="41.903115" lon="12.482999">
          <time>2026-06-01T09:38:06Z</time>
        </trkpt>
        <trkpt lat="41.902979" lon="12.483018">
          <time>2026-06-01T09:38:17Z</time>
        </trkpt>
        <trkpt lat="41.902843" lon="12.483038">
          <time>2026-06-01T09:38:28Z</time>
        </trkpt>
        <trkpt lat="41.902707" lon="12.483057">
          <time>2026-06-01T09:38:38Z</time>
        </trkpt>
        <trkpt lat="41.902571" lon="12.483076">
          <time>2026-06-01T09:38:49Z</time>
        </trkpt>
        <trkpt lat="41.902435" lon="12.483096">
          <time>2026-06-01T09:39:00Z</time>
        </trkpt>
        <trkpt lat="41.902299" lon="12.483115">
          <time>2026-06-01T09:39:11Z</time>
        </trkpt>
        <trkpt lat="41.902164" lon="12.483135">
          <time>2026-06-01T09:39:22Z</time>
        </trkpt>
        <trkpt lat="41.902028" lon="12.483154">
          <time>2026-06-01T09:39:33Z</time>
        </trkpt>
        <trkpt lat="41.901892" lon="12.483174">
          <time>2026-06-01T09:39:44Z</time>
        </trkpt>
        <trkpt lat="41.901756" lon="12.483193">
          <time>2026-06-01T09:39:54Z</time>
        </trkpt>
        <trkpt lat="41.901620" lon="12.483213">
          <time>2026-06-01T09:40:05Z</time>
        </trkpt>
        <trkpt lat="41.901484" lon="12.483232">
          <time>2026-06-01T09:40:16Z</time>
        </trkpt>
        <trkpt lat="41.901348" lon="12.483252">
          <time>2026-06-01T09:40:27Z</time>
        </trkpt>
        <trkpt lat="41.901212" lon="12.483271">
          <time>2026-06-01T09:40:38Z</time>
        </trkpt>
        <trkpt lat="41.901076" lon="12.483291">
          <time>2026-06-01T09:40:49Z</time>
        </trkpt>
        <trkpt lat="41.900940" lon="12.483310">
          <name>Fontana di Trevi</name>
          <time>2026-06-01T09:41:00Z</time>
        </trkpt>
        <trkpt lat="41.900885" lon="12.483141">
          <time>2026-06-01T09:41:11Z</time>
        </trkpt>
        <trkpt lat="41.900830" lon="12.482971">
          <time>2026-06-01T09:41:21Z</time>
        </trkpt>
        <trkpt lat="41.900775" lon="12.482802">
          <time>2026-06-01T09:41:32Z</time>
        </trkpt>
        <trkpt lat="41.900720" lon="12.482632">
          <time>2026-06-01T09:41:43Z</time>
        </trkpt>
        <trkpt lat="41.900665" lon="12.482463">
          <time>2026-06-01T09:41:54Z</time>
        </trkpt>
        <trkpt lat="41.900610" lon="12.482293">
          <time>2026-06-01T09:42:05Z</time>
        </trkpt>
        <trkpt lat="41.900555" lon="12.482124">
          <time>2026-06-01T09:42:16Z</time>
        </trkpt>
        <trkpt lat="41.900500" lon="12.481954">
          <time>2026-06-01T09:42:27Z</time>
        </trkpt>
        <trkpt lat="41.900445" lon="12.481785">
          <time>2026-06-01T09:42:38Z</time>
        </trkpt>
        <trkpt lat="41.900390" lon="12.481615">
          <time>2026-06-01T09:42:49Z</time>
        </trkpt>
        <trkpt lat="41.900335" lon="12.481446">
          <time>2026-06-01T09:43:00Z</time>
        </trkpt>
        <trkpt lat="41.900280" lon="12.481276">
          <time>2026-06-01T09:43:11Z</time>
        </trkpt>
        <trkpt lat="41.900225" lon="12.481107">
          <time>2026-06-01T09:43:22Z</time>
        </trkpt>
        <trkpt lat="41.900170" lon="12.480937">
          <time>2026-06-01T09:43:33Z</time>
        </trkpt>
        <trkpt lat="41.900115" lon="12.480768">
          <time>2026-06-01T09:43:44Z</time>
        </trkpt>
        <trkpt lat="41.900060" lon="12.480598">
          <time>2026-06-01T09:43:54Z</time>
        </trkpt>
        <trkpt lat="41.900005" lon="12.480429">
          <time>2026-06-01T09:44:05Z</time>
        </trkpt>
        <trkpt lat="41.899950" lon="12.480259">
          <time>2026-06-01T09:44:16Z</time>
        </trkpt>
        <trkpt lat="41.899895" lon="12.480090">
          <time>2026-06-01T09:44:27Z</time>
        </trkpt>
        <trkpt lat="41.899840" lon="12.479921">
          <time>2026-06-01T09:44:38Z</time>
        </trkpt>
        <trkpt lat="41.899785" lon="12.479751">
          <time>2026-06-01T09:44:49Z</time>
        </trkpt>
        <trkpt lat="41.899730" lon="12.479582">
          <time>2026-06-01T09:45:00Z</time>
        </trkpt>
        <trkpt lat="41.899675" lon="12.479412">
          <time>2026-06-01T09:45:11Z</time>
        </trkpt>
        <trkpt lat="41.899620" lon="12.479243">
          <time>2026-06-01T09:45:22Z</time>
        </trkpt>
        <trkpt lat="41.899565" lon="12.479073">
          <time>2026-06-01T09:45:33Z</time>
        </trkpt>
        <trkpt lat="41.899510" lon="12.478904">
          <time>2026-06-01T09:45:44Z</time>
        </trkpt>
        <trkpt lat="41.899455" lon="12.478734">
          <time>2026-06-01T09:45:55Z</time>
        </trkpt>
        <trkpt lat="41.899400" lon="12.478565">
          <time>2026-06-01T09:46:06Z</time>
        </trkpt>
        <trkpt lat="41.899345" lon="12.478395">
          <time>2026-06-01T09:46:17Z</time>
        </trkpt>
        <trkpt lat="41.899290" lon="12.478226">
          <time>2026-06-01T09:46:27Z</time>
        </trkpt>
        <trkpt lat="41.899235" lon="12.478056">
          <time>2026-06-01T09:46:38Z</time>
        </trkpt>
        <trkpt lat="41.899180" lon="12.477887">
          <time>2026-06-01T09:46:49Z</time>
        </trkpt>
        <trkpt lat="41.899125" lon="12.477717">
          <time>2026-06-01T09:47:00Z</time>
        </trkpt>
        <trkpt lat="41.899070" lon="12.477548">
          <time>2026-06-01T09:47:11Z</time>
        </trkpt>
        <trkpt lat="41.899015" lon="12.477378">
          <time>2026-06-01T09:47:22Z</time>
        </trkpt>
        <trkpt lat="41.898960" lon="12.477209">
          <time>2026-06-01T09:47:33Z</time>
        </trkpt>
        <trkpt lat="41.898905" lon="12.477039">
          <time>2026-06-01T09:47:44Z</time>
        </trkpt>
        <trkpt lat="41.898850" lon="12.476870">
          <name>The Pantheon</name>
          <time>2026-06-01T09:47:55Z</time>
        </trkpt>
        <trkpt lat="41.898680" lon="12.476830">
          <name>Pantheon interior</name>
          <time>2026-06-01T09:48:09Z</time>
        </trkpt>
        <trkpt lat="41.898704" lon="12.476650">
          <time>2026-06-01T09:48:19Z</time>
        </trkpt>
        <trkpt lat="41.898728" lon="12.476471">
          <time>2026-06-01T09:48:30Z</time>
        </trkpt>
        <trkpt lat="41.898751" lon="12.476291">
          <time>2026-06-01T09:48:41Z</time>
        </trkpt>
        <trkpt lat="41.898775" lon="12.476112">
          <time>2026-06-01T09:48:52Z</time>
        </trkpt>
        <trkpt lat="41.898799" lon="12.475932">
          <time>2026-06-01T09:49:03Z</time>
        </trkpt>
        <trkpt lat="41.898823" lon="12.475753">
          <time>2026-06-01T09:49:13Z</time>
        </trkpt>
        <trkpt lat="41.898847" lon="12.475573">
          <time>2026-06-01T09:49:24Z</time>
        </trkpt>
        <trkpt lat="41.898870" lon="12.475394">
          <time>2026-06-01T09:49:35Z</time>
        </trkpt>
        <trkpt lat="41.898894" lon="12.475214">
          <time>2026-06-01T09:49:46Z</time>
        </trkpt>
        <trkpt lat="41.898918" lon="12.475035">
          <time>2026-06-01T09:49:56Z</time>
        </trkpt>
        <trkpt lat="41.898942" lon="12.474855">
          <time>2026-06-01T09:50:07Z</time>
        </trkpt>
        <trkpt lat="41.898966" lon="12.474676">
          <time>2026-06-01T09:50:18Z</time>
        </trkpt>
        <trkpt lat="41.898990" lon="12.474496">
          <time>2026-06-01T09:50:29Z</time>
        </trkpt>
        <trkpt lat="41.899013" lon="12.474317">
          <time>2026-06-01T09:50:40Z</time>
        </trkpt>
        <trkpt lat="41.899037" lon="12.474137">
          <time>2026-06-01T09:50:50Z</time>
        </trkpt>
        <trkpt lat="41.899061" lon="12.473958">
          <time>2026-06-01T09:51:01Z</time>
        </trkpt>
        <trkpt lat="41.899085" lon="12.473778">
          <time>2026-06-01T09:51:12Z</time>
        </trkpt>
        <trkpt lat="41.899109" lon="12.473599">
          <time>2026-06-01T09:51:23Z</time>
        </trkpt>
        <trkpt lat="41.899132" lon="12.473419">
          <time>2026-06-01T09:51:33Z</time>
        </trkpt>
        <trkpt lat="41.899156" lon="12.473240">
          <time>2026-06-01T09:51:44Z</time>
        </trkpt>
        <trkpt lat="41.899180" lon="12.473060">
          <name>Piazza Navona</name>
          <time>2026-06-01T09:51:55Z</time>
        </trkpt>
        <trkpt lat="41.899047" lon="12.473029">
          <time>2026-06-01T09:52:06Z</time>
        </trkpt>
        <trkpt lat="41.898914" lon="12.472999">
          <time>2026-06-01T09:52:16Z</time>
        </trkpt>
        <trkpt lat="41.898781" lon="12.472968">
          <time>2026-06-01T09:52:27Z</time>
        </trkpt>
        <trkpt lat="41.898648" lon="12.472937">
          <time>2026-06-01T09:52:38Z</time>
        </trkpt>
        <trkpt lat="41.898515" lon="12.472906">
          <time>2026-06-01T09:52:49Z</time>
        </trkpt>
        <trkpt lat="41.898382" lon="12.472876">
          <time>2026-06-01T09:52:59Z</time>
        </trkpt>
        <trkpt lat="41.898249" lon="12.472845">
          <time>2026-06-01T09:53:10Z</time>
        </trkpt>
        <trkpt lat="41.898116" lon="12.472814">
          <time>2026-06-01T09:53:21Z</time>
        </trkpt>
        <trkpt lat="41.897983" lon="12.472783">
          <time>2026-06-01T09:53:31Z</time>
        </trkpt>
        <trkpt lat="41.897850" lon="12.472753">
          <time>2026-06-01T09:53:42Z</time>
        </trkpt>
        <trkpt lat="41.897717" lon="12.472722">
          <time>2026-06-01T09:53:53Z</time>
        </trkpt>
        <trkpt lat="41.897584" lon="12.472691">
          <time>2026-06-01T09:54:04Z</time>
        </trkpt>
        <trkpt lat="41.897451" lon="12.472660">
          <time>2026-06-01T09:54:14Z</time>
        </trkpt>
        <trkpt lat="41.897319" lon="12.472630">
          <time>2026-06-01T09:54:25Z</time>
        </trkpt>
        <trkpt lat="41.897186" lon="12.472599">
          <time>2026-06-01T09:54:36Z</time>
        </trkpt>
        <trkpt lat="41.897053" lon="12.472568">
          <time>2026-06-01T09:54:46Z</time>
        </trkpt>
        <trkpt lat="41.896920" lon="12.472537">
          <time>2026-06-01T09:54:57Z</time>
        </trkpt>
        <trkpt lat="41.896787" lon="12.472507">
          <time>2026-06-01T09:55:08Z</time>
        </trkpt>
        <trkpt lat="41.896654" lon="12.472476">
          <time>2026-06-01T09:55:19Z</time>
        </trkpt>
        <trkpt lat="41.896521" lon="12.472445">
          <time>2026-06-01T09:55:29Z</time>
        </trkpt>
        <trkpt lat="41.896388" lon="12.472414">
          <time>2026-06-01T09:55:40Z</time>
        </trkpt>
        <trkpt lat="41.896255" lon="12.472384">
          <time>2026-06-01T09:55:51Z</time>
        </trkpt>
        <trkpt lat="41.896122" lon="12.472353">
          <time>2026-06-01T09:56:01Z</time>
        </trkpt>
        <trkpt lat="41.895989" lon="12.472322">
          <time>2026-06-01T09:56:12Z</time>
        </trkpt>
        <trkpt lat="41.895856" lon="12.472291">
          <time>2026-06-01T09:56:23Z</time>
        </trkpt>
        <trkpt lat="41.895723" lon="12.472261">
          <time>2026-06-01T09:56:34Z</time>
        </trkpt>
        <trkpt lat="41.895590" lon="12.472230">
          <name>Campo de' Fiori</name>
          <time>2026-06-01T09:56:44Z</time>
        </trkpt>
        <trkpt lat="41.895578" lon="12.472411">
          <time>2026-06-01T09:56:55Z</time>
        </trkpt>
        <trkpt lat="41.895566" lon="12.472592">
          <time>2026-06-01T09:57:06Z</time>
        </trkpt>
        <trkpt lat="41.895554" lon="12.472773">
          <time>2026-06-01T09:57:17Z</time>
        </trkpt>
        <trkpt lat="41.895542" lon="12.472955">
          <time>2026-06-01T09:57:27Z</time>
        </trkpt>
        <trkpt lat="41.895530" lon="12.473136">
          <time>2026-06-01T09:57:38Z</time>
        </trkpt>
        <trkpt lat="41.895518" lon="12.473317">
          <time>2026-06-01T09:57:49Z</time>
        </trkpt>
        <trkpt lat="41.895507" lon="12.473498">
          <time>2026-06-01T09:58:00Z</time>
        </trkpt>
        <trkpt lat="41.895495" lon="12.473679">
          <time>2026-06-01T09:58:10Z</time>
        </trkpt>
        <trkpt lat="41.895483" lon="12.473860">
          <time>2026-06-01T09:58:21Z</time>
        </trkpt>
        <trkpt lat="41.895471" lon="12.474042">
          <time>2026-06-01T09:58:32Z</time>
        </trkpt>
        <trkpt lat="41.895459" lon="12.474223">
          <time>2026-06-01T09:58:43Z</time>
        </trkpt>
        <trkpt lat="41.895447" lon="12.474404">
          <time>2026-06-01T09:58:53Z</time>
        </trkpt>
        <trkpt lat="41.895435" lon="12.474585">
          <time>2026-06-01T09:59:04Z</time>
        </trkpt>
        <trkpt lat="41.895423" lon="12.474766">
          <time>2026-06-01T09:59:15Z</time>
        </trkpt>
        <trkpt lat="41.895411" lon="12.474947">
          <time>2026-06-01T09:59:26Z</time>
        </trkpt>
        <trkpt lat="41.895399" lon="12.475128">
          <time>2026-06-01T09:59:36Z</time>
        </trkpt>
        <trkpt lat="41.895387" lon="12.475310">
          <time>2026-06-01T09:59:47Z</time>
        </trkpt>
        <trkpt lat="41.895375" lon="12.475491">
          <time>2026-06-01T09:59:58Z</time>
        </trkpt>
        <trkpt lat="41.895363" lon="12.475672">
          <time>2026-06-01T10:00:09Z</time>
        </trkpt>
        <trkpt lat="41.895352" lon="12.475853">
          <time>2026-06-01T10:00:19Z</time>
        </trkpt>
        <trkpt lat="41.895340" lon="12.476034">
          <time>2026-06-01T10:00:30Z</time>
        </trkpt>
        <trkpt lat="41.895328" lon="12.476215">
          <time>2026-06-01T10:00:41Z</time>
        </trkpt>
        <trkpt lat="41.895316" lon="12.476397">
          <time>2026-06-01T10:00:52Z</time>
        </trkpt>
        <trkpt lat="41.895304" lon="12.476578">
          <time>2026-06-01T10:01:02Z</time>
        </trkpt>
        <trkpt lat="41.895292" lon="12.476759">
          <time>2026-06-01T10:01:13Z</time>
        </trkpt>
        <trkpt lat="41.895280" lon="12.476940">
          <name>Largo di Torre Argentina</name>
          <time>2026-06-01T10:01:24Z</time>
        </trkpt>
        <trkpt lat="41.895375" lon="12.476810">
          <time>2026-06-01T10:01:35Z</time>
        </trkpt>
        <trkpt lat="41.895470" lon="12.476680">
          <time>2026-06-01T10:01:45Z</time>
        </trkpt>
        <trkpt lat="41.895565" lon="12.476550">
          <time>2026-06-01T10:01:56Z</time>
        </trkpt>
        <trkpt lat="41.895660" lon="12.476420">
          <time>2026-06-01T10:02:07Z</time>
        </trkpt>
        <trkpt lat="41.895754" lon="12.476289">
          <time>2026-06-01T10:02:18Z</time>
        </trkpt>
        <trkpt lat="41.895849" lon="12.476159">
          <time>2026-06-01T10:02:29Z</time>
        </trkpt>
        <trkpt lat="41.895944" lon="12.476029">
          <time>2026-06-01T10:02:39Z</time>
        </trkpt>
        <trkpt lat="41.896039" lon="12.475899">
          <time>2026-06-01T10:02:50Z</time>
        </trkpt>
        <trkpt lat="41.896134" lon="12.475769">
          <time>2026-06-01T10:03:01Z</time>
        </trkpt>
        <trkpt lat="41.896229" lon="12.475639">
          <time>2026-06-01T10:03:12Z</time>
        </trkpt>
        <trkpt lat="41.896324" lon="12.475509">
          <time>2026-06-01T10:03:22Z</time>
        </trkpt>
        <trkpt lat="41.896419" lon="12.475379">
          <time>2026-06-01T10:03:33Z</time>
        </trkpt>
        <trkpt lat="41.896513" lon="12.475248">
          <time>2026-06-01T10:03:44Z</time>
        </trkpt>
        <trkpt lat="41.896608" lon="12.475118">
          <time>2026-06-01T10:03:55Z</time>
        </trkpt>
        <trkpt lat="41.896703" lon="12.474988">
          <time>2026-06-01T10:04:05Z</time>
        </trkpt>
        <trkpt lat="41.896798" lon="12.474858">
          <time>2026-06-01T10:04:16Z</time>
        </trkpt>
        <trkpt lat="41.896893" lon="12.474728">
          <time>2026-06-01T10:04:27Z</time>
        </trkpt>
        <trkpt lat="41.896988" lon="12.474598">
          <time>2026-06-01T10:04:38Z</time>
        </trkpt>
        <trkpt lat="41.897083" lon="12.474468">
          <time>2026-06-01T10:04:48Z</time>
        </trkpt>
        <trkpt lat="41.897178" lon="12.474338">
          <time>2026-06-01T10:04:59Z</time>
        </trkpt>
        <trkpt lat="41.897272" lon="12.474207">
          <time>2026-06-01T10:05:10Z</time>
        </trkpt>
        <trkpt lat="41.897367" lon="12.474077">
          <time>2026-06-01T10:05:21Z</time>
        </trkpt>
        <trkpt lat="41.897462" lon="12.473947">
          <time>2026-06-01T10:05:32Z</time>
        </trkpt>
        <trkpt lat="41.897557" lon="12.473817">
          <time>2026-06-01T10:05:42Z</time>
        </trkpt>
        <trkpt lat="41.897652" lon="12.473687">
          <time>2026-06-01T10:05:53Z</time>
        </trkpt>
        <trkpt lat="41.897747" lon="12.473557">
          <time>2026-06-01T10:06:04Z</time>
        </trkpt>
        <trkpt lat="41.897842" lon="12.473427">
          <time>2026-06-01T10:06:15Z</time>
        </trkpt>
        <trkpt lat="41.897937" lon="12.473297">
          <time>2026-06-01T10:06:25Z</time>
        </trkpt>
        <trkpt lat="41.898031" lon="12.473166">
          <time>2026-06-01T10:06:36Z</time>
        </trkpt>
        <trkpt lat="41.898126" lon="12.473036">
          <time>2026-06-01T10:06:47Z</time>
        </trkpt>
        <trkpt lat="41.898221" lon="12.472906">
          <time>2026-06-01T10:06:58Z</time>
        </trkpt>
        <trkpt lat="41.898316" lon="12.472776">
          <time>2026-06-01T10:07:08Z</time>
        </trkpt>
        <trkpt lat="41.898411" lon="12.472646">
          <time>2026-06-01T10:07:19Z</time>
        </trkpt>
        <trkpt lat="41.898506" lon="12.472516">
          <time>2026-06-01T10:07:30Z</time>
        </trkpt>
        <trkpt lat="41.898601" lon="12.472386">
          <time>2026-06-01T10:07:41Z</time>
        </trkpt>
        <trkpt lat="41.898696" lon="12.472256">
          <time>2026-06-01T10:07:52Z</time>
        </trkpt>
        <trkpt lat="41.898790" lon="12.472125">
          <time>2026-06-01T10:08:02Z</time>
        </trkpt>
        <trkpt lat="41.898885" lon="12.471995">
          <time>2026-06-01T10:08:13Z</time>
        </trkpt>
        <trkpt lat="41.898980" lon="12.471865">
          <time>2026-06-01T10:08:24Z</time>
        </trkpt>
        <trkpt lat="41.899075" lon="12.471735">
          <time>2026-06-01T10:08:35Z</time>
        </trkpt>
        <trkpt lat="41.899170" lon="12.471605">
          <time>2026-06-01T10:08:45Z</time>
        </trkpt>
        <trkpt lat="41.899265" lon="12.471475">
          <time>2026-06-01T10:08:56Z</time>
        </trkpt>
        <trkpt lat="41.899360" lon="12.471345">
          <time>2026-06-01T10:09:07Z</time>
        </trkpt>
        <trkpt lat="41.899455" lon="12.471215">
          <time>2026-06-01T10:09:18Z</time>
        </trkpt>
        <trkpt lat="41.899550" lon="12.471085">
          <time>2026-06-01T10:09:28Z</time>
        </trkpt>
        <trkpt lat="41.899644" lon="12.470954">
          <time>2026-06-01T10:09:39Z</time>
        </trkpt>
        <trkpt lat="41.899739" lon="12.470824">
          <time>2026-06-01T10:09:50Z</time>
        </trkpt>
        <trkpt lat="41.899834" lon="12.470694">
          <time>2026-06-01T10:10:01Z</time>
        </trkpt>
        <trkpt lat="41.899929" lon="12.470564">
          <time>2026-06-01T10:10:12Z</time>
        </trkpt>
        <trkpt lat="41.900024" lon="12.470434">
          <time>2026-06-01T10:10:22Z</time>
        </trkpt>
        <trkpt lat="41.900119" lon="12.470304">
          <time>2026-06-01T10:10:33Z</time>
        </trkpt>
        <trkpt lat="41.900214" lon="12.470174">
          <time>2026-06-01T10:10:44Z</time>
        </trkpt>
        <trkpt lat="41.900309" lon="12.470044">
          <time>2026-06-01T10:10:55Z</time>
        </trkpt>
        <trkpt lat="41.900403" lon="12.469913">
          <time>2026-06-01T10:11:05Z</time>
        </trkpt>
        <trkpt lat="41.900498" lon="12.469783">
          <time>2026-06-01T10:11:16Z</time>
        </trkpt>
        <trkpt lat="41.900593" lon="12.469653">
          <time>2026-06-01T10:11:27Z</time>
        </trkpt>
        <trkpt lat="41.900688" lon="12.469523">
          <time>2026-06-01T10:11:38Z</time>
        </trkpt>
        <trkpt lat="41.900783" lon="12.469393">
          <time>2026-06-01T10:11:48Z</time>
        </trkpt>
        <trkpt lat="41.900878" lon="12.469263">
          <time>2026-06-01T10:11:59Z</time>
        </trkpt>
        <trkpt lat="41.900973" lon="12.469133">
          <time>2026-06-01T10:12:10Z</time>
        </trkpt>
        <trkpt lat="41.901068" lon="12.469003">
          <time>2026-06-01T10:12:21Z</time>
        </trkpt>
        <trkpt lat="41.901162" lon="12.468872">
          <time>2026-06-01T10:12:32Z</time>
        </trkpt>
        <trkpt lat="41.901257" lon="12.468742">
          <time>2026-06-01T10:12:42Z</time>
        </trkpt>
        <trkpt lat="41.901352" lon="12.468612">
          <time>2026-06-01T10:12:53Z</time>
        </trkpt>
        <trkpt lat="41.901447" lon="12.468482">
          <time>2026-06-01T10:13:04Z</time>
        </trkpt>
        <trkpt lat="41.901542" lon="12.468352">
          <time>2026-06-01T10:13:15Z</time>
        </trkpt>
        <trkpt lat="41.901637" lon="12.468222">
          <time>2026-06-01T10:13:25Z</time>
        </trkpt>
        <trkpt lat="41.901732" lon="12.468092">
          <time>2026-06-01T10:13:36Z</time>
        </trkpt>
        <trkpt lat="41.901827" lon="12.467962">
          <time>2026-06-01T10:13:47Z</time>
        </trkpt>
        <trkpt lat="41.901921" lon="12.467831">
          <time>2026-06-01T10:13:58Z</time>
        </trkpt>
        <trkpt lat="41.902016" lon="12.467701">
          <time>2026-06-01T10:14:08Z</time>
        </trkpt>
        <trkpt lat="41.902111" lon="12.467571">
          <time>2026-06-01T10:14:19Z</time>
        </trkpt>
        <trkpt lat="41.902206" lon="12.467441">
          <time>2026-06-01T10:14:30Z</time>
        </trkpt>
        <trkpt lat="41.902301" lon="12.467311">
          <time>2026-06-01T10:14:41Z</time>
        </trkpt>
        <trkpt lat="41.902396" lon="12.467181">
          <time>2026-06-01T10:14:52Z</time>
        </trkpt>
        <trkpt lat="41.902491" lon="12.467051">
          <time>2026-06-01T10:15:02Z</time>
        </trkpt>
        <trkpt lat="41.902586" lon="12.466921">
          <time>2026-06-01T10:15:13Z</time>
        </trkpt>
        <trkpt lat="41.902680" lon="12.466790">
          <time>2026-06-01T10:15:24Z</time>
        </trkpt>
        <trkpt lat="41.902775" lon="12.466660">
          <time>2026-06-01T10:15:35Z</time>
        </trkpt>
        <trkpt lat="41.902870" lon="12.466530">
          <time>2026-06-01T10:15:45Z</time>
        </trkpt>
        <trkpt lat="41.902965" lon="12.466400">
          <time>2026-06-01T10:15:56Z</time>
        </trkpt>
        <trkpt lat="41.903060" lon="12.466270">
          <name>Castel Sant'Angelo</name>
          <time>2026-06-01T10:16:07Z</time>
        </trkpt>
        <trkpt lat="41.902960" lon="12.466392">
          <time>2026-06-01T10:16:18Z</time>
        </trkpt>
        <trkpt lat="41.902861" lon="12.466514">
          <time>2026-06-01T10:16:28Z</time>
        </trkpt>
        <trkpt lat="41.902761" lon="12.466637">
          <time>2026-06-01T10:16:39Z</time>
        </trkpt>
        <trkpt lat="41.902661" lon="12.466759">
          <time>2026-06-01T10:16:50Z</time>
        </trkpt>
        <trkpt lat="41.902562" lon="12.466881">
          <time>2026-06-01T10:17:00Z</time>
        </trkpt>
        <trkpt lat="41.902462" lon="12.467003">
          <time>2026-06-01T10:17:11Z</time>
        </trkpt>
        <trkpt lat="41.902362" lon="12.467126">
          <time>2026-06-01T10:17:22Z</time>
        </trkpt>
        <trkpt lat="41.902263" lon="12.467248">
          <time>2026-06-01T10:17:33Z</time>
        </trkpt>
        <trkpt lat="41.902163" lon="12.467370">
          <time>2026-06-01T10:17:43Z</time>
        </trkpt>
        <trkpt lat="41.902064" lon="12.467492">
          <time>2026-06-01T10:17:54Z</time>
        </trkpt>
        <trkpt lat="41.901964" lon="12.467615">
          <time>2026-06-01T10:18:05Z</time>
        </trkpt>
        <trkpt lat="41.901864" lon="12.467737">
          <time>2026-06-01T10:18:16Z</time>
        </trkpt>
        <trkpt lat="41.901765" lon="12.467859">
          <time>2026-06-01T10:18:26Z</time>
        </trkpt>
        <trkpt lat="41.901665" lon="12.467981">
          <time>2026-06-01T10:18:37Z</time>
        </trkpt>
        <trkpt lat="41.901565" lon="12.468104">
          <time>2026-06-01T10:18:48Z</time>
        </trkpt>
        <trkpt lat="41.901466" lon="12.468226">
          <time>2026-06-01T10:18:58Z</time>
        </trkpt>
        <trkpt lat="41.901366" lon="12.468348">
          <time>2026-06-01T10:19:09Z</time>
        </trkpt>
        <trkpt lat="41.901266" lon="12.468470">
          <time>2026-06-01T10:19:20Z</time>
        </trkpt>
        <trkpt lat="41.901167" lon="12.468593">
          <time>2026-06-01T10:19:31Z</time>
        </trkpt>
        <trkpt lat="41.901067" lon="12.468715">
          <time>2026-06-01T10:19:41Z</time>
        </trkpt>
        <trkpt lat="41.900967" lon="12.468837">
          <time>2026-06-01T10:19:52Z</time>
        </trkpt>
        <trkpt lat="41.900868" lon="12.468959">
          <time>2026-06-01T10:20:03Z</time>
        </trkpt>
        <trkpt lat="41.900768" lon="12.469082">
          <time>2026-06-01T10:20:13Z</time>
        </trkpt>
        <trkpt lat="41.900668" lon="12.469204">
          <time>2026-06-01T10:20:24Z</time>
        </trkpt>
        <trkpt lat="41.900569" lon="12.469326">
          <time>2026-06-01T10:20:35Z</time>
        </trkpt>
        <trkpt lat="41.900469" lon="12.469448">
          <time>2026-06-01T10:20:46Z</time>
        </trkpt>
        <trkpt lat="41.900370" lon="12.469571">
          <time>2026-06-01T10:20:56Z</time>
        </trkpt>
        <trkpt lat="41.900270" lon="12.469693">
          <time>2026-06-01T10:21:07Z</time>
        </trkpt>
        <trkpt lat="41.900170" lon="12.469815">
          <time>2026-06-01T10:21:18Z</time>
        </trkpt>
        <trkpt lat="41.900071" lon="12.469937">
          <time>2026-06-01T10:21:28Z</time>
        </trkpt>
        <trkpt lat="41.899971" lon="12.470059">
          <time>2026-06-01T10:21:39Z</time>
        </trkpt>
        <trkpt lat="41.899871" lon="12.470182">
          <time>2026-06-01T10:21:50Z</time>
        </trkpt>
        <trkpt lat="41.899772" lon="12.470304">
          <time>2026-06-01T10:22:01Z</time>
        </trkpt>
        <trkpt lat="41.899672" lon="12.470426">
          <time>2026-06-01T10:22:11Z</time>
        </trkpt>
        <trkpt lat="41.899572" lon="12.470548">
          <time>2026-06-01T10:22:22Z</time>
        </trkpt>
        <trkpt lat="41.899473" lon="12.470671">
          <time>2026-06-01T10:22:33Z</time>
        </trkpt>
        <trkpt lat="41.899373" lon="12.470793">
          <time>2026-06-01T10:22:43Z</time>
        </trkpt>
        <trkpt lat="41.899273" lon="12.470915">
          <time>2026-06-01T10:22:54Z</time>
        </trkpt>
        <trkpt lat="41.899174" lon="12.471037">
          <time>2026-06-01T10:23:05Z</time>
        </trkpt>
        <trkpt lat="41.899074" lon="12.471160">
          <time>2026-06-01T10:23:16Z</time>
        </trkpt>
        <trkpt lat="41.898974" lon="12.471282">
          <time>2026-06-01T10:23:26Z</time>
        </trkpt>
        <trkpt lat="41.898875" lon="12.471404">
          <time>2026-06-01T10:23:37Z</time>
        </trkpt>
        <trkpt lat="41.898775" lon="12.471526">
          <time>2026-06-01T10:23:48Z</time>
        </trkpt>
        <trkpt lat="41.898676" lon="12.471649">
          <time>2026-06-01T10:23:58Z</time>
        </trkpt>
        <trkpt lat="41.898576" lon="12.471771">
          <time>2026-06-01T10:24:09Z</time>
        </trkpt>
        <trkpt lat="41.898476" lon="12.471893">
          <time>2026-06-01T10:24:20Z</time>
        </trkpt>
        <trkpt lat="41.898377" lon="12.472015">
          <time>2026-06-01T10:24:31Z</time>
        </trkpt>
        <trkpt lat="41.898277" lon="12.472138">
          <time>2026-06-01T10:24:41Z</time>
        </trkpt>
        <trkpt lat="41.898177" lon="12.472260">
          <time>2026-06-01T10:24:52Z</time>
        </trkpt>
        <trkpt lat="41.898078" lon="12.472382">
          <time>2026-06-01T10:25:03Z</time>
        </trkpt>
        <trkpt lat="41.897978" lon="12.472504">
          <time>2026-06-01T10:25:13Z</time>
        </trkpt>
        <trkpt lat="41.897878" lon="12.472627">
          <time>2026-06-01T10:25:24Z</time>
        </trkpt>
        <trkpt lat="41.897779" lon="12.472749">
          <time>2026-06-01T10:25:35Z</time>
        </trkpt>
        <trkpt lat="41.897679" lon="12.472871">
          <time>2026-06-01T10:25:46Z</time>
        </trkpt>
        <trkpt lat="41.897579" lon="12.472993">
          <time>2026-06-01T10:25:56Z</time>
        </trkpt>
        <trkpt lat="41.897480" lon="12.473116">
          <time>2026-06-01T10:26:07Z</time>
        </trkpt>
        <trkpt lat="41.897380" lon="12.473238">
          <time>2026-06-01T10:26:18Z</time>
        </trkpt>
        <trkpt lat="41.897280" lon="12.473360">
          <time>2026-06-01T10:26:29Z</time>
        </trkpt>
        <trkpt lat="41.897181" lon="12.473482">
          <time>2026-06-01T10:26:39Z</time>
        </trkpt>
        <trkpt lat="41.897081" lon="12.473605">
          <time>2026-06-01T10:26:50Z</time>
        </trkpt>
        <trkpt lat="41.896982" lon="12.473727">
          <time>2026-06-01T10:27:01Z</time>
        </trkpt>
        <trkpt lat="41.896882" lon="12.473849">
          <time>2026-06-01T10:27:11Z</time>
        </trkpt>
        <trkpt lat="41.896782" lon="12.473971">
          <time>2026-06-01T10:27:22Z</time>
        </trkpt>
        <trkpt lat="41.896683" lon="12.474093">
          <time>2026-06-01T10:27:33Z</time>
        </trkpt>
        <trkpt lat="41.896583" lon="12.474216">
          <time>2026-06-01T10:27:44Z</time>
        </trkpt>
        <trkpt lat="41.896483" lon="12.474338">
          <time>2026-06-01T10:27:54Z</time>
        </trkpt>
        <trkpt lat="41.896384" lon="12.474460">
          <time>2026-06-01T10:28:05Z</time>
        </trkpt>
        <trkpt lat="41.896284" lon="12.474582">
          <time>2026-06-01T10:28:16Z</time>
        </trkpt>
        <trkpt lat="41.896184" lon="12.474705">
          <time>2026-06-01T10:28:26Z</time>
        </trkpt>
        <trkpt lat="41.896085" lon="12.474827">
          <time>2026-06-01T10:28:37Z</time>
        </trkpt>
        <trkpt lat="41.895985" lon="12.474949">
          <time>2026-06-01T10:28:48Z</time>
        </trkpt>
        <trkpt lat="41.895885" lon="12.475071">
          <time>2026-06-01T10:28:59Z</time>
        </trkpt>
        <trkpt lat="41.895786" lon="12.475194">
          <time>2026-06-01T10:29:09Z</time>
        </trkpt>
        <trkpt lat="41.895686" lon="12.475316">
          <time>2026-06-01T10:29:20Z</time>
        </trkpt>
        <trkpt lat="41.895586" lon="12.475438">
          <time>2026-06-01T10:29:31Z</time>
        </trkpt>
        <trkpt lat="41.895487" lon="12.475560">
          <time>2026-06-01T10:29:41Z</time>
        </trkpt>
        <trkpt lat="41.895387" lon="12.475683">
          <time>2026-06-01T10:29:52Z</time>
        </trkpt>
        <trkpt lat="41.895288" lon="12.475805">
          <time>2026-06-01T10:30:03Z</time>
        </trkpt>
        <trkpt lat="41.895188" lon="12.475927">
          <time>2026-06-01T10:30:14Z</time>
        </trkpt>
        <trkpt lat="41.895088" lon="12.476049">
          <time>2026-06-01T10:30:24Z</time>
        </trkpt>
        <trkpt lat="41.894989" lon="12.476172">
          <time>2026-06-01T10:30:35Z</time>
        </trkpt>
        <trkpt lat="41.894889" lon="12.476294">
          <time>2026-06-01T10:30:46Z</time>
        </trkpt>
        <trkpt lat="41.894789" lon="12.476416">
          <time>2026-06-01T10:30:56Z</time>
        </trkpt>
        <trkpt lat="41.894690" lon="12.476538">
          <time>2026-06-01T10:31:07Z</time>
        </trkpt>
        <trkpt lat="41.894590" lon="12.476661">
          <time>2026-06-01T10:31:18Z</time>
        </trkpt>
        <trkpt lat="41.894490" lon="12.476783">
          <time>2026-06-01T10:31:29Z</time>
        </trkpt>
        <trkpt lat="41.894391" lon="12.476905">
          <time>2026-06-01T10:31:39Z</time>
        </trkpt>
        <trkpt lat="41.894291" lon="12.477027">
          <time>2026-06-01T10:31:50Z</time>
        </trkpt>
        <trkpt lat="41.894191" lon="12.477150">
          <time>2026-06-01T10:32:01Z</time>
        </trkpt>
        <trkpt lat="41.894092" lon="12.477272">
          <time>2026-06-01T10:32:11Z</time>
        </trkpt>
        <trkpt lat="41.893992" lon="12.477394">
          <time>2026-06-01T10:32:22Z</time>
        </trkpt>
        <trkpt lat="41.893892" lon="12.477516">
          <time>2026-06-01T10:32:33Z</time>
        </trkpt>
        <trkpt lat="41.893793" lon="12.477638">
          <time>2026-06-01T10:32:44Z</time>
        </trkpt>
        <trkpt lat="41.893693" lon="12.477761">
          <time>2026-06-01T10:32:54Z</time>
        </trkpt>
        <trkpt lat="41.893594" lon="12.477883">
          <time>2026-06-01T10:33:05Z</time>
        </trkpt>
        <trkpt lat="41.893494" lon="12.478005">
          <time>2026-06-01T10:33:16Z</time>
        </trkpt>
        <trkpt lat="41.893394" lon="12.478127">
          <time>2026-06-01T10:33:27Z</time>
        </trkpt>
        <trkpt lat="41.893295" lon="12.478250">
          <time>2026-06-01T10:33:37Z</time>
        </trkpt>
        <trkpt lat="41.893195" lon="12.478372">
          <time>2026-06-01T10:33:48Z</time>
        </trkpt>
        <trkpt lat="41.893095" lon="12.478494">
          <time>2026-06-01T10:33:59Z</time>
        </trkpt>
        <trkpt lat="41.892996" lon="12.478616">
          <time>2026-06-01T10:34:09Z</time>
        </trkpt>
        <trkpt lat="41.892896" lon="12.478739">
          <time>2026-06-01T10:34:20Z</time>
        </trkpt>
        <trkpt lat="41.892796" lon="12.478861">
          <time>2026-06-01T10:34:31Z</time>
        </trkpt>
        <trkpt lat="41.892697" lon="12.478983">
          <time>2026-06-01T10:34:42Z</time>
        </trkpt>
        <trkpt lat="41.892597" lon="12.479105">
          <time>2026-06-01T10:34:52Z</time>
        </trkpt>
        <trkpt lat="41.892497" lon="12.479228">
          <time>2026-06-01T10:35:03Z</time>
        </trkpt>
        <trkpt lat="41.892398" lon="12.479350">
          <time>2026-06-01T10:35:14Z</time>
        </trkpt>
        <trkpt lat="41.892298" lon="12.479472">
          <time>2026-06-01T10:35:24Z</time>
        </trkpt>
        <trkpt lat="41.892198" lon="12.479594">
          <time>2026-06-01T10:35:35Z</time>
        </trkpt>
        <trkpt lat="41.892099" lon="12.479717">
          <time>2026-06-01T10:35:46Z</time>
        </trkpt>
        <trkpt lat="41.891999" lon="12.479839">
          <time>2026-06-01T10:35:57Z</time>
        </trkpt>
        <trkpt lat="41.891899" lon="12.479961">
          <time>2026-06-01T10:36:07Z</time>
        </trkpt>
        <trkpt lat="41.891800" lon="12.480083">
          <time>2026-06-01T10:36:18Z</time>
        </trkpt>
        <trkpt lat="41.891700" lon="12.480206">
          <time>2026-06-01T10:36:29Z</time>
        </trkpt>
        <trkpt lat="41.891601" lon="12.480328">
          <time>2026-06-01T10:36:39Z</time>
        </trkpt>
        <trkpt lat="41.891501" lon="12.480450">
          <time>2026-06-01T10:36:50Z</time>
        </trkpt>
        <trkpt lat="41.891401" lon="12.480572">
          <time>2026-06-01T10:37:01Z</time>
        </trkpt>
        <trkpt lat="41.891302" lon="12.480695">
          <time>2026-06-01T10:37:12Z</time>
        </trkpt>
        <trkpt lat="41.891202" lon="12.480817">
          <time>2026-06-01T10:37:22Z</time>
        </trkpt>
        <trkpt lat="41.891102" lon="12.480939">
          <time>2026-06-01T10:37:33Z</time>
        </trkpt>
        <trkpt lat="41.891003" lon="12.481061">
          <time>2026-06-01T10:37:44Z</time>
        </trkpt>
        <trkpt lat="41.890903" lon="12.481184">
          <time>2026-06-01T10:37:54Z</time>
        </trkpt>
        <trkpt lat="41.890803" lon="12.481306">
          <time>2026-06-01T10:38:05Z</time>
        </trkpt>
        <trkpt lat="41.890704" lon="12.481428">
          <time>2026-06-01T10:38:16Z</time>
        </trkpt>
        <trkpt lat="41.890604" lon="12.481550">
          <time>2026-06-01T10:38:27Z</time>
        </trkpt>
        <trkpt lat="41.890504" lon="12.481672">
          <time>2026-06-01T10:38:37Z</time>
        </trkpt>
        <trkpt lat="41.890405" lon="12.481795">
          <time>2026-06-01T10:38:48Z</time>
        </trkpt>
        <trkpt lat="41.890305" lon="12.481917">
          <time>2026-06-01T10:38:59Z</time>
        </trkpt>
        <trkpt lat="41.890205" lon="12.482039">
          <time>2026-06-01T10:39:09Z</time>
        </trkpt>
        <trkpt lat="41.890106" lon="12.482161">
          <time>2026-06-01T10:39:20Z</time>
        </trkpt>
        <trkpt lat="41.890006" lon="12.482284">
          <time>2026-06-01T10:39:31Z</time>
        </trkpt>
        <trkpt lat="41.889907" lon="12.482406">
          <time>2026-06-01T10:39:42Z</time>
        </trkpt>
        <trkpt lat="41.889807" lon="12.482528">
          <time>2026-06-01T10:39:52Z</time>
        </trkpt>
        <trkpt lat="41.889707" lon="12.482650">
          <time>2026-06-01T10:40:03Z</time>
        </trkpt>
        <trkpt lat="41.889608" lon="12.482773">
          <time>2026-06-01T10:40:14Z</time>
        </trkpt>
        <trkpt lat="41.889508" lon="12.482895">
          <time>2026-06-01T10:40:25Z</time>
        </trkpt>
        <trkpt lat="41.889408" lon="12.483017">
          <time>2026-06-01T10:40:35Z</time>
        </trkpt>
        <trkpt lat="41.889309" lon="12.483139">
          <time>2026-06-01T10:40:46Z</time>
        </trkpt>
        <trkpt lat="41.889209" lon="12.483262">
          <time>2026-06-01T10:40:57Z</time>
        </trkpt>
        <trkpt lat="41.889109" lon="12.483384">
          <time>2026-06-01T10:41:07Z</time>
        </trkpt>
        <trkpt lat="41.889010" lon="12.483506">
          <time>2026-06-01T10:41:18Z</time>
        </trkpt>
        <trkpt lat="41.888910" lon="12.483628">
          <time>2026-06-01T10:41:29Z</time>
        </trkpt>
        <trkpt lat="41.888810" lon="12.483751">
          <time>2026-06-01T10:41:40Z</time>
        </trkpt>
        <trkpt lat="41.888711" lon="12.483873">
          <time>2026-06-01T10:41:50Z</time>
        </trkpt>
        <trkpt lat="41.888611" lon="12.483995">
          <time>2026-06-01T10:42:01Z</time>
        </trkpt>
        <trkpt lat="41.888511" lon="12.484117">
          <time>2026-06-01T10:42:12Z</time>
        </trkpt>
        <trkpt lat="41.888412" lon="12.484240">
          <time>2026-06-01T10:42:22Z</time>
        </trkpt>
        <trkpt lat="41.888312" lon="12.484362">
          <time>2026-06-01T10:42:33Z</time>
        </trkpt>
        <trkpt lat="41.888213" lon="12.484484">
          <time>2026-06-01T10:42:44Z</time>
        </trkpt>
        <trkpt lat="41.888113" lon="12.484606">
          <time>2026-06-01T10:42:55Z</time>
        </trkpt>
        <trkpt lat="41.888013" lon="12.484729">
          <time>2026-06-01T10:43:05Z</time>
        </trkpt>
        <trkpt lat="41.887914" lon="12.484851">
          <time>2026-06-01T10:43:16Z</time>
        </trkpt>
        <trkpt lat="41.887814" lon="12.484973">
          <time>2026-06-01T10:43:27Z</time>
        </trkpt>
        <trkpt lat="41.887714" lon="12.485095">
          <time>2026-06-01T10:43:37Z</time>
        </trkpt>
        <trkpt lat="41.887615" lon="12.485217">
          <time>2026-06-01T10:43:48Z</time>
        </trkpt>
        <trkpt lat="41.887515" lon="12.485340">
          <time>2026-06-01T10:43:59Z</time>
        </trkpt>
        <trkpt lat="41.887415" lon="12.485462">
          <time>2026-06-01T10:44:10Z</time>
        </trkpt>
        <trkpt lat="41.887316" lon="12.485584">
          <time>2026-06-01T10:44:20Z</time>
        </trkpt>
        <trkpt lat="41.887216" lon="12.485706">
          <time>2026-06-01T10:44:31Z</time>
        </trkpt>
        <trkpt lat="41.887116" lon="12.485829">
          <time>2026-06-01T10:44:42Z</time>
        </trkpt>
        <trkpt lat="41.887017" lon="12.485951">
          <time>2026-06-01T10:44:52Z</time>
        </trkpt>
        <trkpt lat="41.886917" lon="12.486073">
          <time>2026-06-01T10:45:03Z</time>
        </trkpt>
        <trkpt lat="41.886817" lon="12.486195">
          <time>2026-06-01T10:45:14Z</time>
        </trkpt>
        <trkpt lat="41.886718" lon="12.486318">
          <time>2026-06-01T10:45:25Z</time>
        </trkpt>
        <trkpt lat="41.886618" lon="12.486440">
          <time>2026-06-01T10:45:35Z</time>
        </trkpt>
        <trkpt lat="41.886519" lon="12.486562">
          <time>2026-06-01T10:45:46Z</time>
        </trkpt>
        <trkpt lat="41.886419" lon="12.486684">
          <time>2026-06-01T10:45:57Z</time>
        </trkpt>
        <trkpt lat="41.886319" lon="12.486807">
          <time>2026-06-01T10:46:07Z</time>
        </trkpt>
        <trkpt lat="41.886220" lon="12.486929">
          <time>2026-06-01T10:46:18Z</time>
        </trkpt>
        <trkpt lat="41.886120" lon="12.487051">
          <time>2026-06-01T10:46:29Z</time>
        </trkpt>
        <trkpt lat="41.886020" lon="12.487173">
          <time>2026-06-01T10:46:40Z</time>
        </trkpt>
        <trkpt lat="41.885921" lon="12.487296">
          <time>2026-06-01T10:46:50Z</time>
        </trkpt>
        <trkpt lat="41.885821" lon="12.487418">
          <time>2026-06-01T10:47:01Z</time>
        </trkpt>
        <trkpt lat="41.885721" lon="12.487540">
          <time>2026-06-01T10:47:12Z</time>
        </trkpt>
        <trkpt lat="41.885622" lon="12.487662">
          <time>2026-06-01T10:47:23Z</time>
        </trkpt>
        <trkpt lat="41.885522" lon="12.487785">
          <time>2026-06-01T10:47:33Z</time>
        </trkpt>
        <trkpt lat="41.885422" lon="12.487907">
          <time>2026-06-01T10:47:44Z</time>
        </trkpt>
        <trkpt lat="41.885323" lon="12.488029">
          <time>2026-06-01T10:47:55Z</time>
        </trkpt>
        <trkpt lat="41.885223" lon="12.488151">
          <time>2026-06-01T10:48:05Z</time>
        </trkpt>
        <trkpt lat="41.885123" lon="12.488274">
          <time>2026-06-01T10:48:16Z</time>
        </trkpt>
        <trkpt lat="41.885024" lon="12.488396">
          <time>2026-06-01T10:48:27Z</time>
        </trkpt>
        <trkpt lat="41.884924" lon="12.488518">
          <time>2026-06-01T10:48:38Z</time>
        </trkpt>
        <trkpt lat="41.884825" lon="12.488640">
          <time>2026-06-01T10:48:48Z</time>
        </trkpt>
        <trkpt lat="41.884725" lon="12.488762">
          <time>2026-06-01T10:48:59Z</time>
        </trkpt>
        <trkpt lat="41.884625" lon="12.488885">
          <time>2026-06-01T10:49:10Z</time>
        </trkpt>
        <trkpt lat="41.884526" lon="12.489007">
          <time>2026-06-01T10:49:20Z</time>
        </trkpt>
        <trkpt lat="41.884426" lon="12.489129">
          <time>2026-06-01T10:49:31Z</time>
        </trkpt>
        <trkpt lat="41.884326" lon="12.489251">
          <time>2026-06-01T10:49:42Z</time>
        </trkpt>
        <trkpt lat="41.884227" lon="12.489374">
          <time>2026-06-01T10:49:53Z</time>
        </trkpt>
        <trkpt lat="41.884127" lon="12.489496">
          <time>2026-06-01T10:50:03Z</time>
        </trkpt>
        <trkpt lat="41.884027" lon="12.489618">
          <time>2026-06-01T10:50:14Z</time>
        </trkpt>
        <trkpt lat="41.883928" lon="12.489740">
          <time>2026-06-01T10:50:25Z</time>
        </trkpt>
        <trkpt lat="41.883828" lon="12.489863">
          <time>2026-06-01T10:50:35Z</time>
        </trkpt>
        <trkpt lat="41.883728" lon="12.489985">
          <time>2026-06-01T10:50:46Z</time>
        </trkpt>
        <trkpt lat="41.883629" lon="12.490107">
          <time>2026-06-01T10:50:57Z</time>
        </trkpt>
        <trkpt lat="41.883529" lon="12.490229">
          <time>2026-06-01T10:51:08Z</time>
        </trkpt>
        <trkpt lat="41.883429" lon="12.490352">
          <time>2026-06-01T10:51:18Z</time>
        </trkpt>
        <trkpt lat="41.883330" lon="12.490474">
          <time>2026-06-01T10:51:29Z</time>
        </trkpt>
        <trkpt lat="41.883230" lon="12.490596">
          <time>2026-06-01T10:51:40Z</time>
        </trkpt>
        <trkpt lat="41.883131" lon="12.490718">
          <time>2026-06-01T10:51:50Z</time>
        </trkpt>
        <trkpt lat="41.883031" lon="12.490841">
          <time>2026-06-01T10:52:01Z</time>
        </trkpt>
        <trkpt lat="41.882931" lon="12.490963">
          <time>2026-06-01T10:52:12Z</time>
        </trkpt>
        <trkpt lat="41.882832" lon="12.491085">
          <time>2026-06-01T10:52:23Z</time>
        </trkpt>
        <trkpt lat="41.882732" lon="12.491207">
          <time>2026-06-01T10:52:33Z</time>
        </trkpt>
        <trkpt lat="41.882632" lon="12.491330">
          <time>2026-06-01T10:52:44Z</time>
        </trkpt>
        <trkpt lat="41.882533" lon="12.491452">
          <time>2026-06-01T10:52:55Z</time>
        </trkpt>
        <trkpt lat="41.882433" lon="12.491574">
          <time>2026-06-01T10:53:06Z</time>
        </trkpt>
        <trkpt lat="41.882333" lon="12.491696">
          <time>2026-06-01T10:53:16Z</time>
        </trkpt>
        <trkpt lat="41.882234" lon="12.491819">
          <time>2026-06-01T10:53:27Z</time>
        </trkpt>
        <trkpt lat="41.882134" lon="12.491941">
          <time>2026-06-01T10:53:38Z</time>
        </trkpt>
        <trkpt lat="41.882034" lon="12.492063">
          <time>2026-06-01T10:53:48Z</time>
        </trkpt>
        <trkpt lat="41.881935" lon="12.492185">
          <time>2026-06-01T10:53:59Z</time>
        </trkpt>
        <trkpt lat="41.881835" lon="12.492308">
          <time>2026-06-01T10:54:10Z</time>
        </trkpt>
        <trkpt lat="41.881735" lon="12.492430">
          <time>2026-06-01T10:54:21Z</time>
        </trkpt>
        <trkpt lat="41.881636" lon="12.492552">
          <time>2026-06-01T10:54:31Z</time>
        </trkpt>
        <trkpt lat="41.881536" lon="12.492674">
          <time>2026-06-01T10:54:42Z</time>
        </trkpt>
        <trkpt lat="41.881437" lon="12.492796">
          <time>2026-06-01T10:54:53Z</time>
        </trkpt>
        <trkpt lat="41.881337" lon="12.492919">
          <time>2026-06-01T10:55:03Z</time>
        </trkpt>
        <trkpt lat="41.881237" lon="12.493041">
          <time>2026-06-01T10:55:14Z</time>
        </trkpt>
        <trkpt lat="41.881138" lon="12.493163">
          <time>2026-06-01T10:55:25Z</time>
        </trkpt>
        <trkpt lat="41.881038" lon="12.493285">
          <time>2026-06-01T10:55:36Z</time>
        </trkpt>
        <trkpt lat="41.880938" lon="12.493408">
          <time>2026-06-01T10:55:46Z</time>
        </trkpt>
        <trkpt lat="41.880839" lon="12.493530">
          <time>2026-06-01T10:55:57Z</time>
        </trkpt>
        <trkpt lat="41.880739" lon="12.493652">
          <time>2026-06-01T10:56:08Z</time>
        </trkpt>
        <trkpt lat="41.880639" lon="12.493774">
          <time>2026-06-01T10:56:18Z</time>
        </trkpt>
        <trkpt lat="41.880540" lon="12.493897">
          <time>2026-06-01T10:56:29Z</time>
        </trkpt>
        <trkpt lat="41.880440" lon="12.494019">
          <time>2026-06-01T10:56:40Z</time>
        </trkpt>
        <trkpt lat="41.880340" lon="12.494141">
          <time>2026-06-01T10:56:51Z</time>
        </trkpt>
        <trkpt lat="41.880241" lon="12.494263">
          <time>2026-06-01T10:57:01Z</time>
        </trkpt>
        <trkpt lat="41.880141" lon="12.494386">
          <time>2026-06-01T10:57:12Z</time>
        </trkpt>
        <trkpt lat="41.880041" lon="12.494508">
          <time>2026-06-01T10:57:23Z</time>
        </trkpt>
        <trkpt lat="41.879942" lon="12.494630">
          <time>2026-06-01T10:57:33Z</time>
        </trkpt>
        <trkpt lat="41.879842" lon="12.494752">
          <time>2026-06-01T10:57:44Z</time>
        </trkpt>
        <trkpt lat="41.879743" lon="12.494875">
          <time>2026-06-01T10:57:55Z</time>
        </trkpt>
        <trkpt lat="41.879643" lon="12.494997">
          <time>2026-06-01T10:58:06Z</time>
        </trkpt>
        <trkpt lat="41.879543" lon="12.495119">
          <time>2026-06-01T10:58:16Z</time>
        </trkpt>
        <trkpt lat="41.879444" lon="12.495241">
          <time>2026-06-01T10:58:27Z</time>
        </trkpt>
        <trkpt lat="41.879344" lon="12.495364">
          <time>2026-06-01T10:58:38Z</time>
        </trkpt>
        <trkpt lat="41.879244" lon="12.495486">
          <time>2026-06-01T10:58:49Z</time>
        </trkpt>
        <trkpt lat="41.879145" lon="12.495608">
          <time>2026-06-01T10:58:59Z</time>
        </trkpt>
        <trkpt lat="41.879045" lon="12.495730">
          <time>2026-06-01T10:59:10Z</time>
        </trkpt>
        <trkpt lat="41.878945" lon="12.495853">
          <time>2026-06-01T10:59:21Z</time>
        </trkpt>
        <trkpt lat="41.878846" lon="12.495975">
          <time>2026-06-01T10:59:31Z</time>
        </trkpt>
        <trkpt lat="41.878746" lon="12.496097">
          <time>2026-06-01T10:59:42Z</time>
        </trkpt>
        <trkpt lat="41.878646" lon="12.496219">
          <time>2026-06-01T10:59:53Z</time>
        </trkpt>
        <trkpt lat="41.878547" lon="12.496341">
          <time>2026-06-01T11:00:04Z</time>
        </trkpt>
        <trkpt lat="41.878447" lon="12.496464">
          <time>2026-06-01T11:00:14Z</time>
        </trkpt>
        <trkpt lat="41.878347" lon="12.496586">
          <time>2026-06-01T11:00:25Z</time>
        </trkpt>
        <trkpt lat="41.878248" lon="12.496708">
          <time>2026-06-01T11:00:36Z</time>
        </trkpt>
        <trkpt lat="41.878148" lon="12.496830">
          <time>2026-06-01T11:00:46Z</time>
        </trkpt>
        <trkpt lat="41.878049" lon="12.496953">
          <time>2026-06-01T11:00:57Z</time>
        </trkpt>
        <trkpt lat="41.877949" lon="12.497075">
          <time>2026-06-01T11:01:08Z</time>
        </trkpt>
        <trkpt lat="41.877849" lon="12.497197">
          <time>2026-06-01T11:01:19Z</time>
        </trkpt>
        <trkpt lat="41.877750" lon="12.497319">
          <time>2026-06-01T11:01:29Z</time>
        </trkpt>
        <trkpt lat="41.877650" lon="12.497442">
          <time>2026-06-01T11:01:40Z</time>
        </trkpt>
        <trkpt lat="41.877550" lon="12.497564">
          <time>2026-06-01T11:01:51Z</time>
        </trkpt>
        <trkpt lat="41.877451" lon="12.497686">
          <time>2026-06-01T11:02:01Z</time>
        </trkpt>
        <trkpt lat="41.877351" lon="12.497808">
          <time>2026-06-01T11:02:12Z</time>
        </trkpt>
        <trkpt lat="41.877251" lon="12.497931">
          <time>2026-06-01T11:02:23Z</time>
        </trkpt>
        <trkpt lat="41.877152" lon="12.498053">
          <time>2026-06-01T11:02:34Z</time>
        </trkpt>
        <trkpt lat="41.877052" lon="12.498175">
          <time>2026-06-01T11:02:44Z</time>
        </trkpt>
        <trkpt lat="41.876952" lon="12.498297">
          <time>2026-06-01T11:02:55Z</time>
        </trkpt>
        <trkpt lat="41.876853" lon="12.498420">
          <time>2026-06-01T11:03:06Z</time>
        </trkpt>
        <trkpt lat="41.876753" lon="12.498542">
          <time>2026-06-01T11:03:16Z</time>
        </trkpt>
        <trkpt lat="41.876653" lon="12.498664">
          <time>2026-06-01T11:03:27Z</time>
        </trkpt>
        <trkpt lat="41.876554" lon="12.498786">
          <time>2026-06-01T11:03:38Z</time>
        </trkpt>
        <trkpt lat="41.876454" lon="12.498909">
          <time>2026-06-01T11:03:49Z</time>
        </trkpt>
        <trkpt lat="41.876355" lon="12.499031">
          <time>2026-06-01T11:03:59Z</time>
        </trkpt>
        <trkpt lat="41.876255" lon="12.499153">
          <time>2026-06-01T11:04:10Z</time>
        </trkpt>
        <trkpt lat="41.876155" lon="12.499275">
          <time>2026-06-01T11:04:21Z</time>
        </trkpt>
        <trkpt lat="41.876056" lon="12.499398">
          <time>2026-06-01T11:04:32Z</time>
        </trkpt>
        <trkpt lat="41.875956" lon="12.499520">
          <time>2026-06-01T11:04:42Z</time>
        </trkpt>
        <trkpt lat="41.875856" lon="12.499642">
          <time>2026-06-01T11:04:53Z</time>
        </trkpt>
        <trkpt lat="41.875757" lon="12.499764">
          <time>2026-06-01T11:05:04Z</time>
        </trkpt>
        <trkpt lat="41.875657" lon="12.499886">
          <time>2026-06-01T11:05:14Z</time>
        </trkpt>
        <trkpt lat="41.875557" lon="12.500009">
          <time>2026-06-01T11:05:25Z</time>
        </trkpt>
        <trkpt lat="41.875458" lon="12.500131">
          <time>2026-06-01T11:05:36Z</time>
        </trkpt>
        <trkpt lat="41.875358" lon="12.500253">
          <time>2026-06-01T11:05:47Z</time>
        </trkpt>
        <trkpt lat="41.875258" lon="12.500375">
          <time>2026-06-01T11:05:57Z</time>
        </trkpt>
        <trkpt lat="41.875159" lon="12.500498">
          <time>2026-06-01T11:06:08Z</time>
        </trkpt>
        <trkpt lat="41.875059" lon="12.500620">
          <time>2026-06-01T11:06:19Z</time>
        </trkpt>
        <trkpt lat="41.874959" lon="12.500742">
          <time>2026-06-01T11:06:29Z</time>
        </trkpt>
        <trkpt lat="41.874860" lon="12.500864">
          <time>2026-06-01T11:06:40Z</time>
        </trkpt>
        <trkpt lat="41.874760" lon="12.500987">
          <time>2026-06-01T11:06:51Z</time>
        </trkpt>
        <trkpt lat="41.874661" lon="12.501109">
          <time>2026-06-01T11:07:02Z</time>
        </trkpt>
        <trkpt lat="41.874561" lon="12.501231">
          <time>2026-06-01T11:07:12Z</time>
        </trkpt>
        <trkpt lat="41.874461" lon="12.501353">
          <time>2026-06-01T11:07:23Z</time>
        </trkpt>
        <trkpt lat="41.874362" lon="12.501476">
          <time>2026-06-01T11:07:34Z</time>
        </trkpt>
        <trkpt lat="41.874262" lon="12.501598">
          <time>2026-06-01T11:07:44Z</time>
        </trkpt>
        <trkpt lat="41.874162" lon="12.501720">
          <time>2026-06-01T11:07:55Z</time>
        </trkpt>
        <trkpt lat="41.874063" lon="12.501842">
          <time>2026-06-01T11:08:06Z</time>
        </trkpt>
        <trkpt lat="41.873963" lon="12.501965">
          <time>2026-06-01T11:08:17Z</time>
        </trkpt>
        <trkpt lat="41.873863" lon="12.502087">
          <time>2026-06-01T11:08:27Z</time>
        </trkpt>
        <trkpt lat="41.873764" lon="12.502209">
          <time>2026-06-01T11:08:38Z</time>
        </trkpt>
        <trkpt lat="41.873664" lon="12.502331">
          <time>2026-06-01T11:08:49Z</time>
        </trkpt>
        <trkpt lat="41.873564" lon="12.502454">
          <time>2026-06-01T11:09:00Z</time>
        </trkpt>
        <trkpt lat="41.873465" lon="12.502576">
          <time>2026-06-01T11:09:10Z</time>
        </trkpt>
        <trkpt lat="41.873365" lon="12.502698">
          <time>2026-06-01T11:09:21Z</time>
        </trkpt>
        <trkpt lat="41.873265" lon="12.502820">
          <time>2026-06-01T11:09:32Z</time>
        </trkpt>
        <trkpt lat="41.873166" lon="12.502943">
          <time>2026-06-01T11:09:42Z</time>
        </trkpt>
        <trkpt lat="41.873066" lon="12.503065">
          <time>2026-06-01T11:09:53Z</time>
        </trkpt>
        <trkpt lat="41.872966" lon="12.503187">
          <time>2026-06-01T11:10:04Z</time>
        </trkpt>
        <trkpt lat="41.872867" lon="12.503309">
          <time>2026-06-01T11:10:15Z</time>
        </trkpt>
        <trkpt lat="41.872767" lon="12.503432">
          <time>2026-06-01T11:10:25Z</time>
        </trkpt>
        <trkpt lat="41.872668" lon="12.503554">
          <time>2026-06-01T11:10:36Z</time>
        </trkpt>
        <trkpt lat="41.872568" lon="12.503676">
          <time>2026-06-01T11:10:47Z</time>
        </trkpt>
        <trkpt lat="41.872468" lon="12.503798">
          <time>2026-06-01T11:10:57Z</time>
        </trkpt>
        <trkpt lat="41.872369" lon="12.503920">
          <time>2026-06-01T11:11:08Z</time>
        </trkpt>
        <trkpt lat="41.872269" lon="12.504043">
          <time>2026-06-01T11:11:19Z</time>
        </trkpt>
        <trkpt lat="41.872169" lon="12.504165">
          <time>2026-06-01T11:11:30Z</time>
        </trkpt>
        <trkpt lat="41.872070" lon="12.504287">
          <time>2026-06-01T11:11:40Z</time>
        </trkpt>
        <trkpt lat="41.871970" lon="12.504409">
          <time>2026-06-01T11:11:51Z</time>
        </trkpt>
        <trkpt lat="41.871870" lon="12.504532">
          <time>2026-06-01T11:12:02Z</time>
        </trkpt>
        <trkpt lat="41.871771" lon="12.504654">
          <time>2026-06-01T11:12:12Z</time>
        </trkpt>
        <trkpt lat="41.871671" lon="12.504776">
          <time>2026-06-01T11:12:23Z</time>
        </trkpt>
        <trkpt lat="41.871571" lon="12.504898">
          <time>2026-06-01T11:12:34Z</time>
        </trkpt>
        <trkpt lat="41.871472" lon="12.505021">
          <time>2026-06-01T11:12:45Z</time>
        </trkpt>
        <trkpt lat="41.871372" lon="12.505143">
          <time>2026-06-01T11:12:55Z</time>
        </trkpt>
        <trkpt lat="41.871272" lon="12.505265">
          <time>2026-06-01T11:13:06Z</time>
        </trkpt>
        <trkpt lat="41.871173" lon="12.505387">
          <time>2026-06-01T11:13:17Z</time>
        </trkpt>
        <trkpt lat="41.871073" lon="12.505510">
          <time>2026-06-01T11:13:28Z</time>
        </trkpt>
        <trkpt lat="41.870974" lon="12.505632">
          <time>2026-06-01T11:13:38Z</time>
        </trkpt>
        <trkpt lat="41.870874" lon="12.505754">
          <time>2026-06-01T11:13:49Z</time>
        </trkpt>
        <trkpt lat="41.870774" lon="12.505876">
          <time>2026-06-01T11:14:00Z</time>
        </trkpt>
        <trkpt lat="41.870675" lon="12.505999">
          <time>2026-06-01T11:14:10Z</time>
        </trkpt>
        <trkpt lat="41.870575" lon="12.506121">
          <time>2026-06-01T11:14:21Z</time>
        </trkpt>
        <trkpt lat="41.870475" lon="12.506243">
          <time>2026-06-01T11:14:32Z</time>
        </trkpt>
        <trkpt lat="41.870376" lon="12.506365">
          <time>2026-06-01T11:14:43Z</time>
        </trkpt>
        <trkpt lat="41.870276" lon="12.506488">
          <time>2026-06-01T11:14:53Z</time>
        </trkpt>
        <trkpt lat="41.870176" lon="12.506610">
          <time>2026-06-01T11:15:04Z</time>
        </trkpt>
        <trkpt lat="41.870077" lon="12.506732">
          <time>2026-06-01T11:15:15Z</time>
        </trkpt>
        <trkpt lat="41.869977" lon="12.506854">
          <time>2026-06-01T11:15:25Z</time>
        </trkpt>
        <trkpt lat="41.869877" lon="12.506977">
          <time>2026-06-01T11:15:36Z</time>
        </trkpt>
        <trkpt lat="41.869778" lon="12.507099">
          <time>2026-06-01T11:15:47Z</time>
        </trkpt>
        <trkpt lat="41.869678" lon="12.507221">
          <time>2026-06-01T11:15:58Z</time>
        </trkpt>
        <trkpt lat="41.869578" lon="12.507343">
          <time>2026-06-01T11:16:08Z</time>
        </trkpt>
        <trkpt lat="41.869479" lon="12.507465">
          <time>2026-06-01T11:16:19Z</time>
        </trkpt>
        <trkpt lat="41.869379" lon="12.507588">
          <time>2026-06-01T11:16:30Z</time>
        </trkpt>
        <trkpt lat="41.869280" lon="12.507710">
          <time>2026-06-01T11:16:40Z</time>
        </trkpt>
        <trkpt lat="41.869180" lon="12.507832">
          <time>2026-06-01T11:16:51Z</time>
        </trkpt>
        <trkpt lat="41.869080" lon="12.507954">
          <time>2026-06-01T11:17:02Z</time>
        </trkpt>
        <trkpt lat="41.868981" lon="12.508077">
          <time>2026-06-01T11:17:13Z</time>
        </trkpt>
        <trkpt lat="41.868881" lon="12.508199">
          <time>2026-06-01T11:17:23Z</time>
        </trkpt>
        <trkpt lat="41.868781" lon="12.508321">
          <time>2026-06-01T11:17:34Z</time>
        </trkpt>
        <trkpt lat="41.868682" lon="12.508443">
          <time>2026-06-01T11:17:45Z</time>
        </trkpt>
        <trkpt lat="41.868582" lon="12.508566">
          <time>2026-06-01T11:17:55Z</time>
        </trkpt>
        <trkpt lat="41.868482" lon="12.508688">
          <time>2026-06-01T11:18:06Z</time>
        </trkpt>
        <trkpt lat="41.868383" lon="12.508810">
          <time>2026-06-01T11:18:17Z</time>
        </trkpt>
        <trkpt lat="41.868283" lon="12.508932">
          <time>2026-06-01T11:18:28Z</time>
        </trkpt>
        <trkpt lat="41.868183" lon="12.509055">
          <time>2026-06-01T11:18:38Z</time>
        </trkpt>
        <trkpt lat="41.868084" lon="12.509177">
          <time>2026-06-01T11:18:49Z</time>
        </trkpt>
        <trkpt lat="41.867984" lon="12.509299">
          <time>2026-06-01T11:19:00Z</time>
        </trkpt>
        <trkpt lat="41.867884" lon="12.509421">
          <time>2026-06-01T11:19:11Z</time>
        </trkpt>
        <trkpt lat="41.867785" lon="12.509544">
          <time>2026-06-01T11:19:21Z</time>
        </trkpt>
        <trkpt lat="41.867685" lon="12.509666">
          <time>2026-06-01T11:19:32Z</time>
        </trkpt>
        <trkpt lat="41.867586" lon="12.509788">
          <time>2026-06-01T11:19:43Z</time>
        </trkpt>
        <trkpt lat="41.867486" lon="12.509910">
          <time>2026-06-01T11:19:53Z</time>
        </trkpt>
        <trkpt lat="41.867386" lon="12.510033">
          <time>2026-06-01T11:20:04Z</time>
        </trkpt>
        <trkpt lat="41.867287" lon="12.510155">
          <time>2026-06-01T11:20:15Z</time>
        </trkpt>
        <trkpt lat="41.867187" lon="12.510277">
          <time>2026-06-01T11:20:26Z</time>
        </trkpt>
        <trkpt lat="41.867087" lon="12.510399">
          <time>2026-06-01T11:20:36Z</time>
        </trkpt>
        <trkpt lat="41.866988" lon="12.510522">
          <time>2026-06-01T11:20:47Z</time>
        </trkpt>
        <trkpt lat="41.866888" lon="12.510644">
          <time>2026-06-01T11:20:58Z</time>
        </trkpt>
        <trkpt lat="41.866788" lon="12.510766">
          <time>2026-06-01T11:21:08Z</time>
        </trkpt>
        <trkpt lat="41.866689" lon="12.510888">
          <time>2026-06-01T11:21:19Z</time>
        </trkpt>
        <trkpt lat="41.866589" lon="12.511011">
          <time>2026-06-01T11:21:30Z</time>
        </trkpt>
        <trkpt lat="41.866489" lon="12.511133">
          <time>2026-06-01T11:21:41Z</time>
        </trkpt>
        <trkpt lat="41.866390" lon="12.511255">
          <time>2026-06-01T11:21:51Z</time>
        </trkpt>
        <trkpt lat="41.866290" lon="12.511377">
          <time>2026-06-01T11:22:02Z</time>
        </trkpt>
        <trkpt lat="41.866190" lon="12.511499">
          <time>2026-06-01T11:22:13Z</time>
        </trkpt>
        <trkpt lat="41.866091" lon="12.511622">
          <time>2026-06-01T11:22:23Z</time>
        </trkpt>
        <trkpt lat="41.865991" lon="12.511744">
          <time>2026-06-01T11:22:34Z</time>
        </trkpt>
        <trkpt lat="41.865892" lon="12.511866">
          <time>2026-06-01T11:22:45Z</time>
        </trkpt>
        <trkpt lat="41.865792" lon="12.511988">
          <time>2026-06-01T11:22:56Z</time>
        </trkpt>
        <trkpt lat="41.865692" lon="12.512111">
          <time>2026-06-01T11:23:06Z</time>
        </trkpt>
        <trkpt lat="41.865593" lon="12.512233">
          <time>2026-06-01T11:23:17Z</time>
        </trkpt>
        <trkpt lat="41.865493" lon="12.512355">
          <time>2026-06-01T11:23:28Z</time>
        </trkpt>
        <trkpt lat="41.865393" lon="12.512477">
          <time>2026-06-01T11:23:39Z</time>
        </trkpt>
        <trkpt lat="41.865294" lon="12.512600">
          <time>2026-06-01T11:23:49Z</time>
        </trkpt>
        <trkpt lat="41.865194" lon="12.512722">
          <time>2026-06-01T11:24:00Z</time>
        </trkpt>
        <trkpt lat="41.865094" lon="12.512844">
          <time>2026-06-01T11:24:11Z</time>
        </trkpt>
        <trkpt lat="41.864995" lon="12.512966">
          <time>2026-06-01T11:24:21Z</time>
        </trkpt>
        <trkpt lat="41.864895" lon="12.513089">
          <time>2026-06-01T11:24:32Z</time>
        </trkpt>
        <trkpt lat="41.864795" lon="12.513211">
          <time>2026-06-01T11:24:43Z</time>
        </trkpt>
        <trkpt lat="41.864696" lon="12.513333">
          <time>2026-06-01T11:24:54Z</time>
        </trkpt>
        <trkpt lat="41.864596" lon="12.513455">
          <time>2026-06-01T11:25:04Z</time>
        </trkpt>
        <trkpt lat="41.864496" lon="12.513578">
          <time>2026-06-01T11:25:15Z</time>
        </trkpt>
        <trkpt lat="41.864397" lon="12.513700">
          <time>2026-06-01T11:25:26Z</time>
        </trkpt>
        <trkpt lat="41.864297" lon="12.513822">
          <time>2026-06-01T11:25:36Z</time>
        </trkpt>
        <trkpt lat="41.864198" lon="12.513944">
          <time>2026-06-01T11:25:47Z</time>
        </trkpt>
        <trkpt lat="41.864098" lon="12.514067">
          <time>2026-06-01T11:25:58Z</time>
        </trkpt>
        <trkpt lat="41.863998" lon="12.514189">
          <time>2026-06-01T11:26:09Z</time>
        </trkpt>
        <trkpt lat="41.863899" lon="12.514311">
          <time>2026-06-01T11:26:19Z</time>
        </trkpt>
        <trkpt lat="41.863799" lon="12.514433">
          <time>2026-06-01T11:26:30Z</time>
        </trkpt>
        <trkpt lat="41.863699" lon="12.514556">
          <time>2026-06-01T11:26:41Z</time>
        </trkpt>
        <trkpt lat="41.863600" lon="12.514678">
          <time>2026-06-01T11:26:51Z</time>
        </trkpt>
        <trkpt lat="41.863500" lon="12.514800">
          <name>Optional Encore › Via Appia Antica</name>
          <time>2026-06-01T11:27:02Z</time>
        </trkpt>
    </trkseg>
  </trk>
</gpx>
